,ClubName,EntityCode,Address1,Address2,City/Town,State/Province,ZIP/PostalCode,Country,OutdoorTennisCourts,OutdoorClayTennisCourts,LightedCourts,CoveredCourts,IndoorTennisCourts,Index,HrsOfOpeartion,Status,Type,Name
0,Las Colinas CC,2,,,,,,,Outdoor Tennis Courts,,Lighted Courts,,Indoor Tennis Courts,1,"[{""value"": {""Season"": [{""value"": ""All Season""}], ""DayAndTiming"": [{""value"": {""Monday"": [{""value"": true}], ""Tuesday"": [{""value"": true}], ""Wednesday"": [{""value"": true}], ""Thursday"": [{""value"": true}], ""Friday"": [{""value"": true}], ""Saturday"": [{""value"": true}], ""Sunday"": [{""value"": true}], ""Timing"": [{""value"": {""DayPart"": [{""value"": ""All Day""}]}}]}}]}}]",Active,Tennis & Racquet Sports,Tennis Courts
1,Brookhaven Country Club,100,3334 Golfing Gree Drive,,Dallas,TX,75234,USA,Outdoor Tennis Courts,Outdoor Clay Tennis Courts,Lighted Courts,Covered Courts,Indoor Tennis Courts,1,"[{""value"": {""Season"": [{""value"": ""All Season""}], ""DayAndTiming"": [{""value"": {""Monday"": [{""value"": true}], ""Tuesday"": [{""value"": true}], ""Wednesday"": [{""value"": true}], ""Thursday"": [{""value"": true}], ""Friday"": [{""value"": true}], ""Saturday"": [{""value"": true}], ""Sunday"": [{""value"": true}], ""Timing"": [{""value"": {""StartTime"": [{""value"": ""same""}], ""EndTime"": [{""value"": ""same""}], ""DayPart"": [{""value"": ""All Day""}]}}]}}]}}]",Active,Tennis & Racquet Sports,Tennis Courts
2,Canyon Creek Country Club,102,,,,,,,Outdoor Tennis Courts,,Lighted Courts,,Indoor Tennis Courts,1,"[{""value"": {""Season"": [{""value"": ""All Season""}], ""DayAndTiming"": [{""value"": {""Monday"": [{""value"": true}], ""Tuesday"": [{""value"": true}], ""Wednesday"": [{""value"": true}], ""Thursday"": [{""value"": true}], ""Friday"": [{""value"": true}], ""Saturday"": [{""value"": true}], ""Sunday"": [{""value"": true}], ""Timing"": [{""value"": {""DayPart"": [{""value"": ""All Day""}]}}]}}]}}]",Active,Tennis & Racquet Sports,Tennis Courts
3,Countryside Country Club ,103,,,,,,,,Outdoor Clay Tennis Courts,,,,1,"[{""value"": {""Season"": [{""value"": ""All Season""}], ""DayAndTiming"": [{""value"": {""Monday"": [{""value"": true}], ""Tuesday"": [{""value"": true}], ""Wednesday"": [{""value"": true}], ""Thursday"": [{""value"": true}], ""Friday"": [{""value"": true}], ""Saturday"": [{""value"": true}], ""Sunday"": [{""value"": true}], ""Timing"": [{""value"": {""DayPart"": [{""value"": ""All Day""}]}}]}}]}}]",Active,Tennis & Racquet Sports,Tennis Courts
4,Canyon Crest CC,105,same,,,,,,Outdoor Tennis Courts,,Lighted Courts,,,1,"[{""value"": {""Season"": [{""value"": ""All Season""}], ""DayAndTiming"": [{""value"": {""Monday"": [{""value"": true}], ""Tuesday"": [{""value"": true}], ""Wednesday"": [{""value"": true}], ""Thursday"": [{""value"": true}], ""Friday"": [{""value"": true}], ""Saturday"": [{""value"": true}], ""Sunday"": [{""value"": true}], ""Timing"": [{""value"": {""StartTime"": [{""value"": ""06:00 AM""}], ""EndTime"": [{""value"": ""09:00 PM""}], ""DayPart"": [{""value"": ""All Day""}]}}]}}]}}]",Active,Tennis & Racquet Sports,Tennis Courts
5,Braemar Country Club,106,,,,,,,Outdoor Tennis Courts,,Lighted Courts,,,1,"[{""value"": {""Season"": [{""value"": ""All Season""}], ""DayAndTiming"": [{""value"": {""Monday"": [{""value"": true}], ""Tuesday"": [{""value"": true}], ""Wednesday"": [{""value"": true}], ""Thursday"": [{""value"": true}], ""Friday"": [{""value"": true}], ""Saturday"": [{""value"": true}], ""Sunday"": [{""value"": true}], ""Timing"": [{""value"": {""DayPart"": [{""value"": ""All Day""}]}}]}}]}}]",Active,Tennis & Racquet Sports,Tennis Courts
6,Porter Valley Country Club,107,,,,,,,Outdoor Tennis Courts,,Lighted Courts,,,1,"[{""value"": {""Season"": [{""value"": ""All Season""}], ""DayAndTiming"": [{""value"": {""Monday"": [{""value"": true}], ""Tuesday"": [{""value"": true}], ""Wednesday"": [{""value"": true}], ""Thursday"": [{""value"": true}], ""Friday"": [{""value"": true}], ""Saturday"": [{""value"": true}], ""Sunday"": [{""value"": true}], ""Timing"": [{""value"": {""StartTime"": [{""value"": ""06:00 AM""}], ""EndTime"": [{""value"": ""10:00 PM""}], ""DayPart"": [{""value"": ""All Day""}]}}]}}]}}]",Active,Tennis & Racquet Sports,Tennis Courts
7,Spring Valley Lake ,110,,,,,,,Outdoor Tennis Courts,,Lighted Courts,,,1,"[{""value"": {""Season"": [{""value"": ""All Season""}], ""DayAndTiming"": [{""value"": {""Monday"": [{""value"": true}], ""Tuesday"": [{""value"": true}], ""Wednesday"": [{""value"": true}], ""Thursday"": [{""value"": true}], ""Friday"": [{""value"": true}], ""Saturday"": [{""value"": true}], ""Sunday"": [{""value"": true}], ""Timing"": [{""value"": {""StartTime"": [{""value"": ""06:00 AM""}], ""EndTime"": [{""value"": ""09:00 PM""}], ""DayPart"": [{""value"": ""All Day""}]}}]}}]}}]",Active,Tennis & Racquet Sports,Tennis Courts
8,Kingwood Country Club,112,,,,,,,Outdoor Tennis Courts,,Lighted Courts,,,1,"[{""value"": {""Season"": [{""value"": ""All Season""}], ""DayAndTiming"": [{""value"": {""Monday"": [{""value"": true}], ""Tuesday"": [{""value"": true}], ""Wednesday"": [{""value"": true}], ""Thursday"": [{""value"": true}], ""Friday"": [{""value"": true}], ""Timing"": [{""value"": {""StartTime"": [{""value"": ""07:00 AM""}], ""EndTime"": [{""value"": ""10:00 PM""}], ""DayPart"": [{""value"": ""All Day""}]}}]}}, {""value"": {""Saturday"": [{""value"": true}], ""Sunday"": [{""value"": true}], ""Timing"": [{""value"": {""StartTime"": [{""value"": ""07:00 AM""}], ""EndTime"": [{""value"": ""08:00 PM""}], ""DayPart"": [{""value"": ""All Day""}]}}]}}]}}]",Active,Tennis & Racquet Sports,Tennis Courts
9,Lost creek ,114,,,,,,,Outdoor Tennis Courts,,Lighted Courts,,,1,"[{""value"": {""Season"": [{""value"": ""All Season""}], ""DayAndTiming"": [{""value"": {""Monday"": [{""value"": true}], ""Tuesday"": [{""value"": true}], ""Wednesday"": [{""value"": true}], ""Thursday"": [{""value"": true}], ""Friday"": [{""value"": true}], ""Saturday"": [{""value"": true}], ""Sunday"": [{""value"": true}], ""Timing"": [{""value"": {""DayPart"": [{""value"": ""All Day""}]}}]}}]}}]",Active,Tennis & Racquet Sports,Tennis Courts
10,April Sound Country Club,116,,,,,,,Outdoor Tennis Courts,,Lighted Courts,Covered Courts,Indoor Tennis Courts,1,"[{""value"": {""Season"": [{""value"": ""All Season""}], ""DayAndTiming"": [{""value"": {""Monday"": [{""value"": true}], ""Timing"": [{""value"": {""StartTime"": [{""value"": ""10:00 AM""}], ""EndTime"": [{""value"": ""08:00 PM""}], ""DayPart"": [{""value"": ""All Day""}]}}]}}, {""value"": {""Tuesday"": [{""value"": true}], ""Wednesday"": [{""value"": true}], ""Sunday"": [{""value"": true}], ""Timing"": [{""value"": {""StartTime"": [{""value"": ""09:00 AM""}], ""EndTime"": [{""value"": ""08:00 PM""}], ""DayPart"": [{""value"": ""All Day""}]}}]}}, {""value"": {""Thursday"": [{""value"": true}], ""Timing"": [{""value"": {""StartTime"": [{""value"": ""09:00 AM""}], ""EndTime"": [{""value"": ""09:00 PM""}], ""DayPart"": [{""value"": ""All Day""}]}}]}}, {""value"": {""Friday"": [{""value"": true}], ""Saturday"": [{""value"": true}], ""Timing"": [{""value"": {""StartTime"": [{""value"": ""09:00 AM""}], ""EndTime"": [{""value"": ""10:00 PM""}], ""DayPart"": [{""value"": ""All Day""}]}}]}}]}}]",Active,Tennis & Racquet Sports,Tennis Courts
11,Shadowridge,118,,,,,,,,,,,,1,"[{""value"": {""Season"": [{""value"": ""All Season""}], ""DayAndTiming"": [{""value"": {""Monday"": [{""value"": true}], ""Tuesday"": [{""value"": true}], ""Wednesday"": [{""value"": true}], ""Thursday"": [{""value"": true}], ""Friday"": [{""value"": true}], ""Saturday"": [{""value"": true}], ""Sunday"": [{""value"": true}], ""Timing"": [{""value"": {""DayPart"": [{""value"": ""All Day""}]}}]}}]}}]",Active,Tennis & Racquet Sports,Tennis Courts
12,Walnut Creek Country Club,128,1151 Country Club Drive,,Mansfield,Texas,76063,USA,Outdoor Tennis Courts,,Lighted Courts,,,1,"[{""value"": {""Season"": [{""value"": ""All Season""}], ""DayAndTiming"": [{""value"": {""Monday"": [{""value"": true}], ""Tuesday"": [{""value"": true}], ""Wednesday"": [{""value"": true}], ""Thursday"": [{""value"": true}], ""Friday"": [{""value"": true}], ""Saturday"": [{""value"": true}], ""Sunday"": [{""value"": true}], ""Timing"": [{""value"": {""DayPart"": [{""value"": ""All Day""}]}}]}}]}}]",Active,Tennis & Racquet Sports,Tennis Courts
13,Tampa Palms Golf & Country Club,131,,,,,,,,Outdoor Clay Tennis Courts,Lighted Courts,,,1,"[{""value"": {""Season"": [{""value"": ""All Season""}], ""DayAndTiming"": [{""value"": {""Monday"": [{""value"": true}], ""Tuesday"": [{""value"": true}], ""Wednesday"": [{""value"": true}], ""Thursday"": [{""value"": true}], ""Friday"": [{""value"": true}], ""Saturday"": [{""value"": true}], ""Sunday"": [{""value"": true}], ""Timing"": [{""value"": {""DayPart"": [{""value"": ""All Day""}]}}]}}]}}]",Active,Tennis & Racquet Sports,Tennis Courts
14,The Club at Falcon Point,153,,,,,,,Outdoor Tennis Courts,,Lighted Courts,,,1,"[{""value"": {""Season"": [{""value"": ""All Season""}], ""DayAndTiming"": [{""value"": {""Tuesday"": [{""value"": true}], ""Wednesday"": [{""value"": true}], ""Thursday"": [{""value"": true}], ""Friday"": [{""value"": true}], ""Saturday"": [{""value"": true}], ""Sunday"": [{""value"": true}], ""Timing"": [{""value"": {""StartTime"": [{""value"": ""08:00 AM""}], ""EndTime"": [{""value"": ""10:00 PM""}], ""DayPart"": [{""value"": ""All Day""}]}}]}}]}}]",Active,Tennis & Racquet Sports,Tennis Courts
15,Skyline Club / Southfield,157,,,,,,,,,,,,1,"[{""value"": {""Season"": [{""value"": ""All Season""}], ""DayAndTiming"": [{""value"": {""Monday"": [{""value"": true}], ""Tuesday"": [{""value"": true}], ""Wednesday"": [{""value"": true}], ""Thursday"": [{""value"": true}], ""Friday"": [{""value"": true}], ""Saturday"": [{""value"": true}], ""Sunday"": [{""value"": true}], ""Timing"": [{""value"": {""DayPart"": [{""value"": ""All Day""}]}}]}}]}}]",Active,Tennis & Racquet Sports,Tennis Courts
16,Capital City Club Montgomery,158,,,,,,,,,,,,1,"[{""value"": {""Season"": [{""value"": ""All Season""}], ""DayAndTiming"": [{""value"": {""Monday"": [{""value"": true}], ""Tuesday"": [{""value"": true}], ""Wednesday"": [{""value"": true}], ""Thursday"": [{""value"": true}], ""Friday"": [{""value"": true}], ""Saturday"": [{""value"": true}], ""Sunday"": [{""value"": true}], ""Timing"": [{""value"": {""DayPart"": [{""value"": ""All Day""}]}}]}}]}}]",Active,Tennis & Racquet Sports,Tennis Courts
17,Heathstone Country Club,164,7615 Ameswood Rd,,Houston,TX,77095,,Outdoor Tennis Courts,,,Covered Courts,,1,"[{""value"": {""Season"": [{""value"": ""All Season""}], ""DayAndTiming"": [{""value"": {""Monday"": [{""value"": true}], ""Tuesday"": [{""value"": true}], ""Wednesday"": [{""value"": true}], ""Thursday"": [{""value"": true}], ""Friday"": [{""value"": true}], ""Saturday"": [{""value"": true}], ""Sunday"": [{""value"": true}], ""Timing"": [{""value"": {""StartTime"": [{""value"": ""07:00 AM""}], ""EndTime"": [{""value"": ""08:00 PM""}], ""DayPart"": [{""value"": ""All Day""}]}}]}}]}}]",Active,Tennis & Racquet Sports,Tennis Courts
18,City Club Raleigh,166,,,,,,,,,,,,1,"[{""value"": {""Season"": [{""value"": ""All Season""}], ""DayAndTiming"": [{""value"": {""Monday"": [{""value"": true}], ""Tuesday"": [{""value"": true}], ""Wednesday"": [{""value"": true}], ""Thursday"": [{""value"": true}], ""Friday"": [{""value"": true}], ""Saturday"": [{""value"": true}], ""Sunday"": [{""value"": true}], ""Timing"": [{""value"": {""DayPart"": [{""value"": ""All Day""}]}}]}}]}}]",Active,Tennis & Racquet Sports,Tennis Courts
19,Hackberry Creek Country Club,170,na,,,,,,Outdoor Tennis Courts,Outdoor Clay Tennis Courts,Lighted Courts,,,1,"[{""value"": {""Season"": [{""value"": ""All Season""}], ""DayAndTiming"": [{""value"": {""Monday"": [{""value"": true}], ""Tuesday"": [{""value"": true}], ""Wednesday"": [{""value"": true}], ""Thursday"": [{""value"": true}], ""Friday"": [{""value"": true}], ""Saturday"": [{""value"": true}], ""Sunday"": [{""value"": true}], ""Timing"": [{""value"": {""DayPart"": [{""value"": ""All Day""}]}}]}}]}}]",Active,Tennis & Racquet Sports,Tennis Courts
20,Dayton Racquet Club ,183,,,,,,,,,,,,1,"[{""value"": {""Season"": [{""value"": ""All Season""}], ""DayAndTiming"": [{""value"": {""Monday"": [{""value"": true}], ""Tuesday"": [{""value"": true}], ""Wednesday"": [{""value"": true}], ""Thursday"": [{""value"": true}], ""Friday"": [{""value"": true}], ""Saturday"": [{""value"": true}], ""Sunday"": [{""value"": true}], ""Timing"": [{""value"": {""DayPart"": [{""value"": ""All Day""}]}}]}}]}}]",Active,Tennis & Racquet Sports,Tennis Courts
21,Citrus Club,185,,,,,,,,,,,,1,"[{""value"": {""Season"": [{""value"": ""All Season""}], ""DayAndTiming"": [{""value"": {""Monday"": [{""value"": true}], ""Tuesday"": [{""value"": true}], ""Wednesday"": [{""value"": true}], ""Thursday"": [{""value"": true}], ""Friday"": [{""value"": true}], ""Saturday"": [{""value"": true}], ""Sunday"": [{""value"": true}], ""Timing"": [{""value"": {""DayPart"": [{""value"": ""All Day""}]}}]}}]}}]",Active,Tennis & Racquet Sports,Tennis Courts
22,The Downtown Club,192,,,,,,,,,Lighted Courts,,Indoor Tennis Courts,1,"[{""value"": {""Season"": [{""value"": ""All Season""}], ""DayAndTiming"": [{""value"": {""Monday"": [{""value"": true}], ""Tuesday"": [{""value"": true}], ""Wednesday"": [{""value"": true}], ""Thursday"": [{""value"": true}], ""Timing"": [{""value"": {""StartTime"": [{""value"": ""05:00 AM""}], ""EndTime"": [{""value"": ""10:00 PM""}], ""DayPart"": [{""value"": ""All Day""}]}}]}}, {""value"": {""Friday"": [{""value"": true}], ""Timing"": [{""value"": {""StartTime"": [{""value"": ""05:00 AM""}], ""EndTime"": [{""value"": ""08:00 PM""}], ""DayPart"": [{""value"": ""All Day""}]}}]}}, {""value"": {""Saturday"": [{""value"": true}], ""Sunday"": [{""value"": true}], ""Timing"": [{""value"": {""StartTime"": [{""value"": ""08:00 AM""}], ""EndTime"": [{""value"": ""06:00 PM""}], ""DayPart"": [{""value"": ""All Day""}]}}]}}]}}]",Active,Tennis & Racquet Sports,Tennis Courts
23,Plaza Club,195,,,,,,,,,,,,1,"[{""value"": {""Season"": [{""value"": ""All Season""}], ""DayAndTiming"": [{""value"": {""Monday"": [{""value"": true}], ""Tuesday"": [{""value"": true}], ""Wednesday"": [{""value"": true}], ""Thursday"": [{""value"": true}], ""Friday"": [{""value"": true}], ""Saturday"": [{""value"": true}], ""Sunday"": [{""value"": true}], ""Timing"": [{""value"": {""DayPart"": [{""value"": ""All Day""}]}}]}}]}}]",Active,Tennis & Racquet Sports,Tennis Courts
24,Tower Club Fort Lauderdale,198,,,,,,,,,,,,1,"[{""value"": {""Season"": [{""value"": ""All Season""}], ""DayAndTiming"": [{""value"": {""Monday"": [{""value"": true}], ""Tuesday"": [{""value"": true}], ""Wednesday"": [{""value"": true}], ""Thursday"": [{""value"": true}], ""Friday"": [{""value"": true}], ""Saturday"": [{""value"": true}], ""Sunday"": [{""value"": true}], ""Timing"": [{""value"": {""DayPart"": [{""value"": ""All Day""}]}}]}}]}}]",Active,Tennis & Racquet Sports,Tennis Courts
25,The Metropolitan,199,,,,,,,,,,,,1,"[{""value"": {""Season"": [{""value"": ""All Season""}], ""DayAndTiming"": [{""value"": {""Monday"": [{""value"": true}], ""Tuesday"": [{""value"": true}], ""Wednesday"": [{""value"": true}], ""Thursday"": [{""value"": true}], ""Friday"": [{""value"": true}], ""Saturday"": [{""value"": true}], ""Sunday"": [{""value"": true}], ""Timing"": [{""value"": {""DayPart"": [{""value"": ""All Day""}]}}]}}]}}]",Active,Tennis & Racquet Sports,Tennis Courts
26,Oakmont CC,238,,,,,,,Outdoor Tennis Courts,,Lighted Courts,,,1,"[{""value"": {""Season"": [{""value"": ""All Season""}], ""DayAndTiming"": [{""value"": {""Monday"": [{""value"": true}], ""Tuesday"": [{""value"": true}], ""Wednesday"": [{""value"": true}], ""Thursday"": [{""value"": true}], ""Friday"": [{""value"": true}], ""Saturday"": [{""value"": true}], ""Sunday"": [{""value"": true}], ""Timing"": [{""value"": {""DayPart"": [{""value"": ""All Day""}]}}]}}]}}]",Active,Tennis & Racquet Sports,Tennis Courts
27,Stonebriar CC,245,,,,,,,Outdoor Tennis Courts,,Lighted Courts,,,1,"[{""value"": {""Season"": [{""value"": ""All Season""}], ""DayAndTiming"": [{""value"": {""Monday"": [{""value"": true}], ""Tuesday"": [{""value"": true}], ""Wednesday"": [{""value"": true}], ""Thursday"": [{""value"": true}], ""Friday"": [{""value"": true}], ""Saturday"": [{""value"": true}], ""Sunday"": [{""value"": true}], ""Timing"": [{""value"": {""DayPart"": [{""value"": ""All Day""}]}}]}}]}}]",Active,Tennis & Racquet Sports,Tennis Courts
28,Monarch Country Club,253,,,,,,,,Outdoor Clay Tennis Courts,Lighted Courts,,,1,"[{""value"": {""Season"": [{""value"": ""All Season""}], ""DayAndTiming"": [{""value"": {""Monday"": [{""value"": true}], ""Tuesday"": [{""value"": true}], ""Wednesday"": [{""value"": true}], ""Thursday"": [{""value"": true}], ""Friday"": [{""value"": true}], ""Saturday"": [{""value"": true}], ""Sunday"": [{""value"": true}], ""Timing"": [{""value"": {""DayPart"": [{""value"": ""All Day""}]}}]}}]}}]",Active,Tennis & Racquet Sports,Tennis Courts
29,Desert Falls Country Club,259,,,,,,,,,,,,1,"[{""value"": {""Season"": [{""value"": ""All Season""}], ""DayAndTiming"": [{""value"": {""Monday"": [{""value"": true}], ""Tuesday"": [{""value"": true}], ""Wednesday"": [{""value"": true}], ""Thursday"": [{""value"": true}], ""Friday"": [{""value"": true}], ""Saturday"": [{""value"": true}], ""Sunday"": [{""value"": true}], ""Timing"": [{""value"": {""DayPart"": [{""value"": ""All Day""}]}}]}}]}}]",Active,Tennis & Racquet Sports,Tennis Courts
30,Mission Hills Country Club,260,3 Racquet Club Drive,,Rancho Mirage,CA,92270,US,Outdoor Tennis Courts,Outdoor Clay Tennis Courts,Lighted Courts,,,1,"[{""value"": {""Season"": [{""value"": ""All Season""}], ""DayAndTiming"": [{""value"": {""Monday"": [{""value"": true}], ""Tuesday"": [{""value"": true}], ""Wednesday"": [{""value"": true}], ""Thursday"": [{""value"": true}], ""Friday"": [{""value"": true}], ""Saturday"": [{""value"": true}], ""Sunday"": [{""value"": true}], ""Timing"": [{""value"": {""StartTime"": [{""value"": ""08:00 AM""}], ""EndTime"": [{""value"": ""08:00 PM""}], ""DayPart"": [{""value"": ""All Day""}]}}]}}]}}]",Active,Tennis & Racquet Sports,Tennis Courts
31,Gleneagles,268,,,,,,,Outdoor Tennis Courts,,,,,1,"[{""value"": {""Season"": [{""value"": ""All Season""}], ""DayAndTiming"": [{""value"": {""Monday"": [{""value"": true}], ""Tuesday"": [{""value"": true}], ""Wednesday"": [{""value"": true}], ""Thursday"": [{""value"": true}], ""Friday"": [{""value"": true}], ""Saturday"": [{""value"": true}], ""Sunday"": [{""value"": true}], ""Timing"": [{""value"": {""DayPart"": [{""value"": ""All Day""}]}}]}}]}}]",Active,Tennis & Racquet Sports,Tennis Courts
32,Harbour Club,269,,,,,,,,,,,,1,"[{""value"": {""Season"": [{""value"": ""All Season""}], ""DayAndTiming"": [{""value"": {""Monday"": [{""value"": true}], ""Timing"": [{""value"": {""EndTime"": [{""value"": ""n""}], ""DayPart"": [{""value"": ""All Day""}]}}]}}, {""value"": {""Tuesday"": [{""value"": true}], ""Wednesday"": [{""value"": true}], ""Thursday"": [{""value"": true}], ""Friday"": [{""value"": true}], ""Saturday"": [{""value"": true}], ""Sunday"": [{""value"": true}], ""Timing"": [{""value"": {""StartTime"": [{""value"": ""n""}], ""EndTime"": [{""value"": ""n""}], ""DayPart"": [{""value"": ""All Day""}]}}]}}]}}]",Active,Tennis & Racquet Sports,Tennis Courts
33,Tower Club Tysons Corner,293,,,,,,,,,,,,1,"[{""value"": {""Season"": [{""value"": ""All Season""}], ""DayAndTiming"": [{""value"": {""Monday"": [{""value"": true}], ""Tuesday"": [{""value"": true}], ""Wednesday"": [{""value"": true}], ""Thursday"": [{""value"": true}], ""Friday"": [{""value"": true}], ""Saturday"": [{""value"": true}], ""Sunday"": [{""value"": true}], ""Timing"": [{""value"": {""DayPart"": [{""value"": ""All Day""}]}}]}}]}}]",Active,Tennis & Racquet Sports,Tennis Courts
34,Willow Creek Golf Club,298,,,,,,,,,,,,1,"[{""value"": {""Season"": [{""value"": ""All Season""}], ""DayAndTiming"": [{""value"": {""Monday"": [{""value"": true}], ""Tuesday"": [{""value"": true}], ""Wednesday"": [{""value"": true}], ""Thursday"": [{""value"": true}], ""Friday"": [{""value"": true}], ""Saturday"": [{""value"": true}], ""Sunday"": [{""value"": true}], ""Timing"": [{""value"": {""DayPart"": [{""value"": ""All Day""}]}}]}}]}}]",Active,Tennis & Racquet Sports,Tennis Courts
35,Ipswich Country Club,375,67 Edge Street,,Ipswich ,MA,1938,,Outdoor Tennis Courts,,,,,1,"[{""value"": {""Season"": [{""value"": ""All Season""}], ""DayAndTiming"": [{""value"": {""Monday"": [{""value"": true}], ""Tuesday"": [{""value"": true}], ""Wednesday"": [{""value"": true}], ""Thursday"": [{""value"": true}], ""Friday"": [{""value"": true}], ""Saturday"": [{""value"": true}], ""Sunday"": [{""value"": true}], ""Timing"": [{""value"": {""DayPart"": [{""value"": ""All Day""}]}}]}}]}}]",Active,Tennis & Racquet Sports,Tennis Courts
36,Woodside Plantation Country Club ,387,,,,,,,Outdoor Tennis Courts,Outdoor Clay Tennis Courts,Lighted Courts,,,1,"[{""value"": {""Season"": [{""value"": ""All Season""}], ""DayAndTiming"": [{""value"": {""Monday"": [{""value"": true}], ""Tuesday"": [{""value"": true}], ""Wednesday"": [{""value"": true}], ""Thursday"": [{""value"": true}], ""Friday"": [{""value"": true}], ""Saturday"": [{""value"": true}], ""Sunday"": [{""value"": true}], ""Timing"": [{""value"": {""DayPart"": [{""value"": ""All Day""}]}}]}}]}}]",Active,Tennis & Racquet Sports,Tennis Courts
37,Centre Club Tampa,413,,,N/AN/A,,,,,,,,,1,"[{""value"": {""Season"": [{""value"": ""All Season""}], ""DayAndTiming"": [{""value"": {""Monday"": [{""value"": true}], ""Tuesday"": [{""value"": true}], ""Wednesday"": [{""value"": true}], ""Thursday"": [{""value"": true}], ""Friday"": [{""value"": true}], ""Saturday"": [{""value"": true}], ""Sunday"": [{""value"": true}], ""Timing"": [{""value"": {""DayPart"": [{""value"": ""All Day""}]}}]}}]}}]",Active,Tennis & Racquet Sports,Tennis Courts
38,La Cima Club,430,,,,,,,,,,,,1,"[{""value"": {""Season"": [{""value"": ""All Season""}], ""DayAndTiming"": [{""value"": {""Monday"": [{""value"": true}], ""Tuesday"": [{""value"": true}], ""Wednesday"": [{""value"": true}], ""Thursday"": [{""value"": true}], ""Friday"": [{""value"": true}], ""Saturday"": [{""value"": true}], ""Sunday"": [{""value"": true}], ""Timing"": [{""value"": {""DayPart"": [{""value"": ""All Day""}]}}]}}]}}]",Active,Tennis & Racquet Sports,Tennis Courts
39,Treesdale Golf & Country Club,448,,,,,,,Outdoor Tennis Courts,,Lighted Courts,,,1,"[{""value"": {""Season"": [{""value"": ""All Season""}], ""DayAndTiming"": [{""value"": {""Monday"": [{""value"": true}], ""Tuesday"": [{""value"": true}], ""Wednesday"": [{""value"": true}], ""Thursday"": [{""value"": true}], ""Friday"": [{""value"": true}], ""Saturday"": [{""value"": true}], ""Sunday"": [{""value"": true}], ""Timing"": [{""value"": {""StartTime"": [{""value"": ""09:00 AM""}], ""EndTime"": [{""value"": ""08:00 PM""}], ""DayPart"": [{""value"": ""All Day""}]}}]}}]}}]",Active,Tennis & Racquet Sports,Tennis Courts
40,The Columbia Tower Club,454,,,,,,,,,,,,1,"[{""value"": {""Season"": [{""value"": ""All Season""}], ""DayAndTiming"": [{""value"": {""Monday"": [{""value"": true}], ""Tuesday"": [{""value"": true}], ""Wednesday"": [{""value"": true}], ""Thursday"": [{""value"": true}], ""Friday"": [{""value"": true}], ""Saturday"": [{""value"": true}], ""Sunday"": [{""value"": true}], ""Timing"": [{""value"": {""DayPart"": [{""value"": ""All Day""}]}}]}}]}}]",Active,Tennis & Racquet Sports,Tennis Courts
41,Wildflower Country Club,476,,,,,,,Outdoor Tennis Courts,,Lighted Courts,,,1,"[{""value"": {""Season"": [{""value"": ""All Season""}], ""DayAndTiming"": [{""value"": {""Monday"": [{""value"": true}], ""Tuesday"": [{""value"": true}], ""Wednesday"": [{""value"": true}], ""Thursday"": [{""value"": true}], ""Friday"": [{""value"": true}], ""Saturday"": [{""value"": true}], ""Timing"": [{""value"": {""StartTime"": [{""value"": ""08:00 AM""}], ""EndTime"": [{""value"": ""09:00 PM""}], ""DayPart"": [{""value"": ""All Day""}]}}]}}, {""value"": {""Sunday"": [{""value"": true}], ""Timing"": [{""value"": {""StartTime"": [{""value"": ""08:00 AM""}], ""EndTime"": [{""value"": ""07:00 PM""}], ""DayPart"": [{""value"": ""All Day""}]}}]}}]}}]",Active,Tennis & Racquet Sports,Tennis Courts
42,Pyramid Club,507,,,,,,,,,,,,1,"[{""value"": {""Season"": [{""value"": ""All Season""}], ""DayAndTiming"": [{""value"": {""Monday"": [{""value"": true}], ""Tuesday"": [{""value"": true}], ""Wednesday"": [{""value"": true}], ""Thursday"": [{""value"": true}], ""Friday"": [{""value"": true}], ""Saturday"": [{""value"": true}], ""Sunday"": [{""value"": true}], ""Timing"": [{""value"": {""DayPart"": [{""value"": ""All Day""}]}}]}}]}}]",Active,Tennis & Racquet Sports,Tennis Courts
43,Canyon Gate,514,2021 Canyon Gate Drive,,LAs Vegas,Nv,89117,USA,Outdoor Tennis Courts,,Lighted Courts,,,1,"[{""value"": {""Season"": [{""value"": ""All Season""}], ""DayAndTiming"": [{""value"": {""Monday"": [{""value"": true}], ""Tuesday"": [{""value"": true}], ""Wednesday"": [{""value"": true}], ""Thursday"": [{""value"": true}], ""Friday"": [{""value"": true}], ""Saturday"": [{""value"": true}], ""Sunday"": [{""value"": true}], ""Timing"": [{""value"": {""StartTime"": [{""value"": ""07:00 AM""}], ""EndTime"": [{""value"": ""10:00 PM""}], ""DayPart"": [{""value"": ""All Day""}]}}]}}]}}]",Active,Tennis & Racquet Sports,Tennis Courts
44,Southern Trace Country Club,522,,,,,,,Outdoor Tennis Courts,Outdoor Clay Tennis Courts,Lighted Courts,,,1,"[{""value"": {""Season"": [{""value"": ""All Season""}], ""DayAndTiming"": [{""value"": {""Monday"": [{""value"": true}], ""Tuesday"": [{""value"": true}], ""Wednesday"": [{""value"": true}], ""Thursday"": [{""value"": true}], ""Friday"": [{""value"": true}], ""Saturday"": [{""value"": true}], ""Sunday"": [{""value"": true}], ""Timing"": [{""value"": {""DayPart"": [{""value"": ""All Day""}]}}]}}]}}]",Active,Tennis & Racquet Sports,Tennis Courts
45,Marina Vallarta Golf Club,541,,,,,,,,,,,,1,"[{""value"": {""Season"": [{""value"": ""All Season""}], ""DayAndTiming"": [{""value"": {""Monday"": [{""value"": true}], ""Tuesday"": [{""value"": true}], ""Wednesday"": [{""value"": true}], ""Thursday"": [{""value"": true}], ""Friday"": [{""value"": true}], ""Saturday"": [{""value"": true}], ""Sunday"": [{""value"": true}], ""Timing"": [{""value"": {""DayPart"": [{""value"": ""All Day""}]}}]}}]}}]",Active,Tennis & Racquet Sports,Tennis Courts
46,The Carolina Club,556,,,,,,,,,,,,1,"[{""value"": {""Season"": [{""value"": ""All Season""}], ""DayAndTiming"": [{""value"": {""Monday"": [{""value"": true}], ""Tuesday"": [{""value"": true}], ""Wednesday"": [{""value"": true}], ""Thursday"": [{""value"": true}], ""Friday"": [{""value"": true}], ""Saturday"": [{""value"": true}], ""Sunday"": [{""value"": true}], ""Timing"": [{""value"": {""DayPart"": [{""value"": ""All Day""}]}}]}}]}}]",Active,Tennis & Racquet Sports,Tennis Courts
47,Oak Pointe,561,,,,,,,Outdoor Tennis Courts,,Lighted Courts,,,1,"[{""value"": {""Season"": [{""value"": ""All Season""}], ""DayAndTiming"": [{""value"": {""Monday"": [{""value"": true}], ""Tuesday"": [{""value"": true}], ""Wednesday"": [{""value"": true}], ""Thursday"": [{""value"": true}], ""Friday"": [{""value"": true}], ""Saturday"": [{""value"": true}], ""Sunday"": [{""value"": true}], ""Timing"": [{""value"": {""StartTime"": [{""value"": ""Daily""}], ""EndTime"": [{""value"": ""Daily""}], ""DayPart"": [{""value"": ""All Day""}]}}]}}]}}]",Active,Tennis & Racquet Sports,Tennis Courts
48,Capital City Club-Columbia,562,,,,,,,,,,,,1,"[{""value"": {""Season"": [{""value"": ""All Season""}], ""DayAndTiming"": [{""value"": {""Monday"": [{""value"": true}], ""Tuesday"": [{""value"": true}], ""Wednesday"": [{""value"": true}], ""Thursday"": [{""value"": true}], ""Friday"": [{""value"": true}], ""Saturday"": [{""value"": true}], ""Sunday"": [{""value"": true}], ""Timing"": [{""value"": {""DayPart"": [{""value"": ""All Day""}]}}]}}]}}]",Active,Tennis & Racquet Sports,Tennis Courts
49,Shady Valley Country Club,574,,,,,,,Outdoor Tennis Courts,,,,,1,"[{""value"": {""Season"": [{""value"": ""All Season""}], ""DayAndTiming"": [{""value"": {""Monday"": [{""value"": true}], ""Tuesday"": [{""value"": true}], ""Wednesday"": [{""value"": true}], ""Thursday"": [{""value"": true}], ""Friday"": [{""value"": true}], ""Saturday"": [{""value"": true}], ""Sunday"": [{""value"": true}], ""Timing"": [{""value"": {""StartTime"": [{""value"": ""07:00 AM""}], ""EndTime"": [{""value"": ""07:00 PM""}], ""DayPart"": [{""value"": ""All Day""}]}}]}}]}}]",Active,Tennis & Racquet Sports,Tennis Courts
50,Club LeConte,607,,,,,,,,,,,,1,"[{""value"": {""Season"": [{""value"": ""All Season""}], ""DayAndTiming"": [{""value"": {""Monday"": [{""value"": true}], ""Tuesday"": [{""value"": true}], ""Wednesday"": [{""value"": true}], ""Thursday"": [{""value"": true}], ""Friday"": [{""value"": true}], ""Saturday"": [{""value"": true}], ""Sunday"": [{""value"": true}], ""Timing"": [{""value"": {""DayPart"": [{""value"": ""All Day""}]}}]}}]}}]",Active,Tennis & Racquet Sports,Tennis Courts
51,Northwood County Club,622,,,,,,,,,,,,1,"[{""value"": {""Season"": [{""value"": ""All Season""}], ""DayAndTiming"": [{""value"": {""Monday"": [{""value"": true}], ""Tuesday"": [{""value"": true}], ""Wednesday"": [{""value"": true}], ""Thursday"": [{""value"": true}], ""Friday"": [{""value"": true}], ""Saturday"": [{""value"": true}], ""Sunday"": [{""value"": true}], ""Timing"": [{""value"": {""DayPart"": [{""value"": ""All Day""}]}}]}}]}}]",Active,Tennis & Racquet Sports,Tennis Courts
52,Commerce Greenville,641,,,,,,,,,,,,1,"[{""value"": {""Season"": [{""value"": ""All Season""}], ""DayAndTiming"": [{""value"": {""Monday"": [{""value"": true}], ""Tuesday"": [{""value"": true}], ""Wednesday"": [{""value"": true}], ""Thursday"": [{""value"": true}], ""Friday"": [{""value"": true}], ""Saturday"": [{""value"": true}], ""Sunday"": [{""value"": true}], ""Timing"": [{""value"": {""DayPart"": [{""value"": ""All Day""}]}}]}}]}}]",Active,Tennis & Racquet Sports,Tennis Courts
53,Skyline Club Indianapolis,646,,,,,,,,,,,,1,"[{""value"": {""Season"": [{""value"": ""All Season""}], ""DayAndTiming"": [{""value"": {""Monday"": [{""value"": true}], ""Tuesday"": [{""value"": true}], ""Wednesday"": [{""value"": true}], ""Thursday"": [{""value"": true}], ""Friday"": [{""value"": true}], ""Saturday"": [{""value"": true}], ""Sunday"": [{""value"": true}], ""Timing"": [{""value"": {""DayPart"": [{""value"": ""All Day""}]}}]}}]}}]",Active,Tennis & Racquet Sports,Tennis Courts
54,Tower Club of Dallas,648,,,,,,,,,,,,1,"[{""value"": {""Season"": [{""value"": ""All Season""}], ""DayAndTiming"": [{""value"": {""Monday"": [{""value"": true}], ""Tuesday"": [{""value"": true}], ""Wednesday"": [{""value"": true}], ""Thursday"": [{""value"": true}], ""Friday"": [{""value"": true}], ""Saturday"": [{""value"": true}], ""Sunday"": [{""value"": true}], ""Timing"": [{""value"": {""DayPart"": [{""value"": ""All Day""}]}}]}}]}}]",Active,Tennis & Racquet Sports,Tennis Courts
55,Rivers Club,654,,,,,,,,,,,,1,"[{""value"": {""Season"": [{""value"": ""All Season""}], ""DayAndTiming"": [{""value"": {""Monday"": [{""value"": true}], ""Tuesday"": [{""value"": true}], ""Wednesday"": [{""value"": true}], ""Thursday"": [{""value"": true}], ""Friday"": [{""value"": true}], ""Saturday"": [{""value"": true}], ""Sunday"": [{""value"": true}], ""Timing"": [{""value"": {""DayPart"": [{""value"": ""All Day""}]}}]}}]}}]",Active,Tennis & Racquet Sports,Tennis Courts
56,Center Club Orange County,657,,,,,,,,,,,,1,"[{""value"": {""Season"": [{""value"": ""All Season""}], ""DayAndTiming"": [{""value"": {""Monday"": [{""value"": true}], ""Tuesday"": [{""value"": true}], ""Wednesday"": [{""value"": true}], ""Thursday"": [{""value"": true}], ""Friday"": [{""value"": true}], ""Saturday"": [{""value"": true}], ""Sunday"": [{""value"": true}], ""Timing"": [{""value"": {""DayPart"": [{""value"": ""All Day""}]}}]}}]}}]",Active,Tennis & Racquet Sports,Tennis Courts
57,Firestone Country Club,674,,,,,,,,,,,,1,"[{""value"": {""Season"": [{""value"": ""All Season""}], ""DayAndTiming"": [{""value"": {""Monday"": [{""value"": true}], ""Tuesday"": [{""value"": true}], ""Wednesday"": [{""value"": true}], ""Thursday"": [{""value"": true}], ""Friday"": [{""value"": true}], ""Saturday"": [{""value"": true}], ""Sunday"": [{""value"": true}], ""Timing"": [{""value"": {""DayPart"": [{""value"": ""All Day""}]}}]}}]}}]",Active,Tennis & Racquet Sports,Tennis Courts
58,Crow Canyon CC,678,,,,,,,Outdoor Tennis Courts,,Lighted Courts,,,1,"[{""value"": {""Season"": [{""value"": ""All Season""}], ""DayAndTiming"": [{""value"": {""Monday"": [{""value"": true}], ""Tuesday"": [{""value"": true}], ""Wednesday"": [{""value"": true}], ""Thursday"": [{""value"": true}], ""Friday"": [{""value"": true}], ""Saturday"": [{""value"": true}], ""Sunday"": [{""value"": true}], ""Timing"": [{""value"": {""DayPart"": [{""value"": ""All Day""}]}}]}}]}}]",Active,Tennis & Racquet Sports,Tennis Courts
59,Town Point Club,682,,,,,,,,,,,,1,"[{""value"": {""Season"": [{""value"": ""All Season""}], ""DayAndTiming"": [{""value"": {""Monday"": [{""value"": true}], ""Tuesday"": [{""value"": true}], ""Wednesday"": [{""value"": true}], ""Thursday"": [{""value"": true}], ""Friday"": [{""value"": true}], ""Saturday"": [{""value"": true}], ""Sunday"": [{""value"": true}], ""Timing"": [{""value"": {""DayPart"": [{""value"": ""All Day""}]}}]}}]}}]",Active,Tennis & Racquet Sports,Tennis Courts
60,Knollwood ,685,,,,,,,,,Lighted Courts,,,1,"[{""value"": {""Season"": [{""value"": ""All Season""}], ""DayAndTiming"": [{""value"": {""Monday"": [{""value"": true}], ""Tuesday"": [{""value"": true}], ""Wednesday"": [{""value"": true}], ""Thursday"": [{""value"": true}], ""Friday"": [{""value"": true}], ""Saturday"": [{""value"": true}], ""Sunday"": [{""value"": true}], ""Timing"": [{""value"": {""DayPart"": [{""value"": ""All Day""}]}}]}}]}}]",Active,Tennis & Racquet Sports,Tennis Courts
61,University Club atop Symphony Towers,703,,,,,,,,,,,,1,"[{""value"": {""Season"": [{""value"": ""All Season""}], ""DayAndTiming"": [{""value"": {""Monday"": [{""value"": true}], ""Tuesday"": [{""value"": true}], ""Wednesday"": [{""value"": true}], ""Thursday"": [{""value"": true}], ""Friday"": [{""value"": true}], ""Saturday"": [{""value"": true}], ""Sunday"": [{""value"": true}], ""Timing"": [{""value"": {""DayPart"": [{""value"": ""All Day""}]}}]}}]}}]",Active,Tennis & Racquet Sports,Tennis Courts
62,The City Club of Washington D.C.,715,,,,,,,,,,,,1,"[{""value"": {""Season"": [{""value"": ""All Season""}], ""DayAndTiming"": [{""value"": {""Monday"": [{""value"": true}], ""Tuesday"": [{""value"": true}], ""Wednesday"": [{""value"": true}], ""Thursday"": [{""value"": true}], ""Friday"": [{""value"": true}], ""Saturday"": [{""value"": true}], ""Sunday"": [{""value"": true}], ""Timing"": [{""value"": {""DayPart"": [{""value"": ""All Day""}]}}]}}]}}]",Active,Tennis & Racquet Sports,Tennis Courts
63,Buckhead,730,,,,,,,,,,,,1,"[{""value"": {""Season"": [{""value"": ""All Season""}], ""DayAndTiming"": [{""value"": {""Monday"": [{""value"": true}], ""Tuesday"": [{""value"": true}], ""Wednesday"": [{""value"": true}], ""Thursday"": [{""value"": true}], ""Friday"": [{""value"": true}], ""Saturday"": [{""value"": true}], ""Sunday"": [{""value"": true}], ""Timing"": [{""value"": {""DayPart"": [{""value"": ""All Day""}]}}]}}]}}]",Active,Tennis & Racquet Sports,Tennis Courts
64,Fair Oaks Ranch,734,,,,,,,Outdoor Tennis Courts,,Lighted Courts,,,1,"[{""value"": {""Season"": [{""value"": ""All Season""}], ""DayAndTiming"": [{""value"": {""Monday"": [{""value"": true}], ""Tuesday"": [{""value"": true}], ""Wednesday"": [{""value"": true}], ""Thursday"": [{""value"": true}], ""Friday"": [{""value"": true}], ""Saturday"": [{""value"": true}], ""Sunday"": [{""value"": true}], ""Timing"": [{""value"": {""EndTime"": [{""value"": ""09:30""}], ""DayPart"": [{""value"": ""All Day""}]}}]}}]}}]",Active,Tennis & Racquet Sports,Tennis Courts
65,Queen's Harbour Yacht & CC,745,na,,,,,,Outdoor Tennis Courts,,Lighted Courts,,,1,"[{""value"": {""Season"": [{""value"": ""All Season""}], ""DayAndTiming"": [{""value"": {""Monday"": [{""value"": true}], ""Tuesday"": [{""value"": true}], ""Wednesday"": [{""value"": true}], ""Thursday"": [{""value"": true}], ""Friday"": [{""value"": true}], ""Saturday"": [{""value"": true}], ""Sunday"": [{""value"": true}], ""Timing"": [{""value"": {""DayPart"": [{""value"": ""All Day""}]}}]}}]}}]",Active,Tennis & Racquet Sports,Tennis Courts
66,Athletic & Swim Club,750,na,,na,na,na,na,,,,,,1,"[{""value"": {""Season"": [{""value"": ""All Season""}], ""DayAndTiming"": [{""value"": {""Monday"": [{""value"": true}], ""Tuesday"": [{""value"": true}], ""Wednesday"": [{""value"": true}], ""Thursday"": [{""value"": true}], ""Friday"": [{""value"": true}], ""Saturday"": [{""value"": true}], ""Sunday"": [{""value"": true}], ""Timing"": [{""value"": {""DayPart"": [{""value"": ""All Day""}]}}]}}]}}]",Active,Tennis & Racquet Sports,Tennis Courts
67,City Club Los Angeles,763,,,,,,,,,,,,1,"[{""value"": {""Season"": [{""value"": ""All Season""}], ""DayAndTiming"": [{""value"": {""Monday"": [{""value"": true}], ""Tuesday"": [{""value"": true}], ""Wednesday"": [{""value"": true}], ""Thursday"": [{""value"": true}], ""Friday"": [{""value"": true}], ""Saturday"": [{""value"": true}], ""Sunday"": [{""value"": true}], ""Timing"": [{""value"": {""StartTime"": [{""value"": ""O""}], ""EndTime"": [{""value"": ""O""}], ""DayPart"": [{""value"": ""All Day""}]}}]}}]}}]",Active,Tennis & Racquet Sports,Tennis Courts
68,Greenbrier Country Club,764,,,,,,,,Outdoor Clay Tennis Courts,Lighted Courts,,,1,"[{""value"": {""Season"": [{""value"": ""All Season""}], ""DayAndTiming"": [{""value"": {""Monday"": [{""value"": true}], ""Tuesday"": [{""value"": true}], ""Wednesday"": [{""value"": true}], ""Thursday"": [{""value"": true}], ""Friday"": [{""value"": true}], ""Saturday"": [{""value"": true}], ""Sunday"": [{""value"": true}], ""Timing"": [{""value"": {""DayPart"": [{""value"": ""All Day""}]}}]}}]}}]",Active,Tennis & Racquet Sports,Tennis Courts
69,City Club of Birmingham,881,,,,,,,,,,,,1,"[{""value"": {""Season"": [{""value"": ""All Season""}], ""DayAndTiming"": [{""value"": {""Monday"": [{""value"": true}], ""Tuesday"": [{""value"": true}], ""Wednesday"": [{""value"": true}], ""Thursday"": [{""value"": true}], ""Friday"": [{""value"": true}], ""Saturday"": [{""value"": true}], ""Sunday"": [{""value"": true}], ""Timing"": [{""value"": {""DayPart"": [{""value"": ""All Day""}]}}]}}]}}]",Active,Tennis & Racquet Sports,Tennis Courts
70,Silver Lake,913,,,,,,,,,,,,1,"[{""value"": {""Season"": [{""value"": ""All Season""}], ""DayAndTiming"": [{""value"": {""Monday"": [{""value"": true}], ""Tuesday"": [{""value"": true}], ""Wednesday"": [{""value"": true}], ""Thursday"": [{""value"": true}], ""Friday"": [{""value"": true}], ""Saturday"": [{""value"": true}], ""Sunday"": [{""value"": true}], ""Timing"": [{""value"": {""DayPart"": [{""value"": ""All Day""}]}}]}}]}}]",Active,Tennis & Racquet Sports,Tennis Courts
71,Cimarron Country Club,979,,,,,,,Outdoor Tennis Courts,,Lighted Courts,,,1,"[{""value"": {""Season"": [{""value"": ""All Season""}], ""DayAndTiming"": [{""value"": {""Monday"": [{""value"": true}], ""Tuesday"": [{""value"": true}], ""Wednesday"": [{""value"": true}], ""Thursday"": [{""value"": true}], ""Friday"": [{""value"": true}], ""Saturday"": [{""value"": true}], ""Sunday"": [{""value"": true}], ""Timing"": [{""value"": {""StartTime"": [{""value"": ""7:30 AM open""}], ""EndTime"": [{""value"": ""9:00 PM close""}], ""DayPart"": [{""value"": ""All Day""}]}}]}}]}}]",Active,Tennis & Racquet Sports,Tennis Courts
72,Bay Oaks CC,996,,,,,,,Outdoor Tennis Courts,,Lighted Courts,,,1,"[{""value"": {""Season"": [{""value"": ""All Season""}], ""DayAndTiming"": [{""value"": {""Monday"": [{""value"": true}], ""Tuesday"": [{""value"": true}], ""Wednesday"": [{""value"": true}], ""Thursday"": [{""value"": true}], ""Friday"": [{""value"": true}], ""Saturday"": [{""value"": true}], ""Sunday"": [{""value"": true}], ""Timing"": [{""value"": {""StartTime"": [{""value"": ""06:00 AM""}], ""EndTime"": [{""value"": ""10:00 PM""}], ""DayPart"": [{""value"": ""All Day""}]}}]}}]}}]",Active,Tennis & Racquet Sports,Tennis Courts
73,Indian Wells Country Club,1054,,,,,,,,,,,,1,"[{""value"": {""Season"": [{""value"": ""All Season""}], ""DayAndTiming"": [{""value"": {""Monday"": [{""value"": true}], ""Tuesday"": [{""value"": true}], ""Wednesday"": [{""value"": true}], ""Thursday"": [{""value"": true}], ""Friday"": [{""value"": true}], ""Saturday"": [{""value"": true}], ""Sunday"": [{""value"": true}], ""Timing"": [{""value"": {""DayPart"": [{""value"": ""All Day""}]}}]}}]}}]",Active,Tennis & Racquet Sports,Tennis Courts
74,The Golf Club at Indigo Run,1056,,,,,,,,Outdoor Clay Tennis Courts,Lighted Courts,,,1,"[{""value"": {""Season"": [{""value"": ""All Season""}], ""DayAndTiming"": [{""value"": {""Monday"": [{""value"": true}], ""Tuesday"": [{""value"": true}], ""Wednesday"": [{""value"": true}], ""Thursday"": [{""value"": true}], ""Friday"": [{""value"": true}], ""Saturday"": [{""value"": true}], ""Sunday"": [{""value"": true}], ""Timing"": [{""value"": {""StartTime"": [{""value"": ""8""}], ""EndTime"": [{""value"": ""8""}], ""DayPart"": [{""value"": ""All Day""}]}}]}}]}}]",Active,Tennis & Racquet Sports,Tennis Courts
75,Hunters Green Country Club,1063,18050 Hunters Oak Court,,Tampa,FL,33647,United States of America,,Outdoor Clay Tennis Courts,,,,1,"[{""value"": {""Season"": [{""value"": ""All Season""}], ""DayAndTiming"": [{""value"": {""Monday"": [{""value"": true}], ""Tuesday"": [{""value"": true}], ""Wednesday"": [{""value"": true}], ""Thursday"": [{""value"": true}], ""Friday"": [{""value"": true}], ""Saturday"": [{""value"": true}], ""Sunday"": [{""value"": true}], ""Timing"": [{""value"": {""DayPart"": [{""value"": ""All Day""}]}}]}}]}}]",Active,Tennis & Racquet Sports,Tennis Courts
76,River Creek Club,1075,na,na,na,na,na,na,Outdoor Tennis Courts,,Lighted Courts,,,1,"[{""value"": {""Season"": [{""value"": ""All Season""}], ""DayAndTiming"": [{""value"": {""Monday"": [{""value"": true}], ""Tuesday"": [{""value"": true}], ""Wednesday"": [{""value"": true}], ""Thursday"": [{""value"": true}], ""Friday"": [{""value"": true}], ""Saturday"": [{""value"": true}], ""Sunday"": [{""value"": true}], ""Timing"": [{""value"": {""StartTime"": [{""value"": ""08:00 AM""}], ""EndTime"": [{""value"": ""10:00 PM""}], ""DayPart"": [{""value"": ""All Day""}]}}]}}]}}]",Active,Tennis & Racquet Sports,Tennis Courts
77,Coto de Caza Golf & Racquet Club,1084,same,,,,,,Outdoor Tennis Courts,,Lighted Courts,,,1,"[{""value"": {""Season"": [{""value"": ""All Season""}], ""DayAndTiming"": [{""value"": {""Monday"": [{""value"": true}], ""Timing"": [{""value"": {""StartTime"": [{""value"": ""same""}], ""DayPart"": [{""value"": ""All Day""}]}}]}}, {""value"": {""Tuesday"": [{""value"": true}], ""Wednesday"": [{""value"": true}], ""Thursday"": [{""value"": true}], ""Friday"": [{""value"": true}], ""Saturday"": [{""value"": true}], ""Sunday"": [{""value"": true}], ""Timing"": [{""value"": {""DayPart"": [{""value"": ""All Day""}]}}]}}]}}]",Active,Tennis & Racquet Sports,Tennis Courts
78,Country Club of Hilton head,1098,,,,,,,,Outdoor Clay Tennis Courts,,,,1,"[{""value"": {""Season"": [{""value"": ""All Season""}], ""DayAndTiming"": [{""value"": {""Monday"": [{""value"": true}], ""Tuesday"": [{""value"": true}], ""Wednesday"": [{""value"": true}], ""Thursday"": [{""value"": true}], ""Friday"": [{""value"": true}], ""Saturday"": [{""value"": true}], ""Sunday"": [{""value"": true}], ""Timing"": [{""value"": {""StartTime"": [{""value"": ""07:00 AM""}], ""EndTime"": [{""value"": ""07:00 PM""}], ""DayPart"": [{""value"": ""All Day""}]}}]}}]}}]",Active,Tennis & Racquet Sports,Tennis Courts
79,Gainey Ranch,1099,,,,,,,,,,,,1,"[{""value"": {""Season"": [{""value"": ""All Season""}], ""DayAndTiming"": [{""value"": {""Monday"": [{""value"": true}], ""Tuesday"": [{""value"": true}], ""Wednesday"": [{""value"": true}], ""Thursday"": [{""value"": true}], ""Friday"": [{""value"": true}], ""Saturday"": [{""value"": true}], ""Sunday"": [{""value"": true}], ""Timing"": [{""value"": {""DayPart"": [{""value"": ""All Day""}]}}]}}]}}]",Active,Tennis & Racquet Sports,Tennis Courts
80,Haile Plantation Golf & Country Club,1100,9905 SW 44TH AVE,,Gainesville,FL,32608,United States,,Outdoor Clay Tennis Courts,Lighted Courts,,,1,"[{""value"": {""Season"": [{""value"": ""All Season""}], ""DayAndTiming"": [{""value"": {""Monday"": [{""value"": true}], ""Tuesday"": [{""value"": true}], ""Wednesday"": [{""value"": true}], ""Thursday"": [{""value"": true}], ""Friday"": [{""value"": true}], ""Saturday"": [{""value"": true}], ""Sunday"": [{""value"": true}], ""Timing"": [{""value"": {""DayPart"": [{""value"": ""All Day""}]}}]}}]}}]",Active,Tennis & Racquet Sports,Tennis Courts
81,Stonehenge,1104,1000 Farnham Dr,,North Chesterfield,VA,23236,United States,Outdoor Tennis Courts,,Lighted Courts,,,1,"[{""value"": {""Season"": [{""value"": ""All Season""}], ""DayAndTiming"": [{""value"": {""Monday"": [{""value"": true}], ""Tuesday"": [{""value"": true}], ""Wednesday"": [{""value"": true}], ""Thursday"": [{""value"": true}], ""Friday"": [{""value"": true}], ""Saturday"": [{""value"": true}], ""Sunday"": [{""value"": true}], ""Timing"": [{""value"": {""DayPart"": [{""value"": ""All Day""}]}}]}}]}}]",Active,Tennis & Racquet Sports,Tennis Courts
82,the golden bear ,1136,,,,,,,,Outdoor Clay Tennis Courts,Lighted Courts,,,1,"[{""value"": {""Season"": [{""value"": ""All Season""}], ""DayAndTiming"": [{""value"": {""Monday"": [{""value"": true}], ""Tuesday"": [{""value"": true}], ""Wednesday"": [{""value"": true}], ""Thursday"": [{""value"": true}], ""Friday"": [{""value"": true}], ""Saturday"": [{""value"": true}], ""Sunday"": [{""value"": true}], ""Timing"": [{""value"": {""StartTime"": [{""value"": ""8""}], ""EndTime"": [{""value"": ""8""}], ""DayPart"": [{""value"": ""All Day""}]}}]}}]}}]",Active,Tennis & Racquet Sports,Tennis Courts
83,Timarron Country Club,1162,,,,,,,,,,,,1,"[{""value"": {""Season"": [{""value"": ""All Season""}], ""DayAndTiming"": [{""value"": {""Monday"": [{""value"": true}], ""Tuesday"": [{""value"": true}], ""Wednesday"": [{""value"": true}], ""Thursday"": [{""value"": true}], ""Friday"": [{""value"": true}], ""Saturday"": [{""value"": true}], ""Sunday"": [{""value"": true}], ""Timing"": [{""value"": {""DayPart"": [{""value"": ""All Day""}]}}]}}]}}]",Active,Tennis & Racquet Sports,Tennis Courts
84,University Center Club,1191,,,,,,,,,,,,1,"[{""value"": {""Season"": [{""value"": ""All Season""}], ""DayAndTiming"": [{""value"": {""Monday"": [{""value"": true}], ""Tuesday"": [{""value"": true}], ""Wednesday"": [{""value"": true}], ""Thursday"": [{""value"": true}], ""Friday"": [{""value"": true}], ""Saturday"": [{""value"": true}], ""Sunday"": [{""value"": true}], ""Timing"": [{""value"": {""DayPart"": [{""value"": ""All Day""}]}}]}}]}}]",Active,Tennis & Racquet Sports,Tennis Courts
85,Boston College,1344,,,,,,,,,,,,1,"[{""value"": {""Season"": [{""value"": ""All Season""}], ""DayAndTiming"": [{""value"": {""Monday"": [{""value"": true}], ""Tuesday"": [{""value"": true}], ""Wednesday"": [{""value"": true}], ""Thursday"": [{""value"": true}], ""Friday"": [{""value"": true}], ""Saturday"": [{""value"": true}], ""Sunday"": [{""value"": true}], ""Timing"": [{""value"": {""DayPart"": [{""value"": ""All Day""}]}}]}}]}}]",Active,Tennis & Racquet Sports,Tennis Courts
86,SVCC,1349,,,,,,,,,,,,1,"[{""value"": {""Season"": [{""value"": ""All Season""}], ""DayAndTiming"": [{""value"": {""Monday"": [{""value"": true}], ""Tuesday"": [{""value"": true}], ""Wednesday"": [{""value"": true}], ""Thursday"": [{""value"": true}], ""Friday"": [{""value"": true}], ""Saturday"": [{""value"": true}], ""Sunday"": [{""value"": true}], ""Timing"": [{""value"": {""DayPart"": [{""value"": ""All Day""}]}}]}}]}}]",Active,Tennis & Racquet Sports,Tennis Courts
87,Aliso Viejo Country Club,1401,,,,,,,,,,,,1,"[{""value"": {""Season"": [{""value"": ""All Season""}], ""DayAndTiming"": [{""value"": {""Monday"": [{""value"": true}], ""Tuesday"": [{""value"": true}], ""Wednesday"": [{""value"": true}], ""Thursday"": [{""value"": true}], ""Friday"": [{""value"": true}], ""Saturday"": [{""value"": true}], ""Sunday"": [{""value"": true}], ""Timing"": [{""value"": {""DayPart"": [{""value"": ""All Day""}]}}]}}]}}]",Active,Tennis & Racquet Sports,Tennis Courts
88,Quail Hollow CC,1430,,,,,,,,,,,,1,"[{""value"": {""Season"": [{""value"": ""All Season""}], ""DayAndTiming"": [{""value"": {""Monday"": [{""value"": true}], ""Tuesday"": [{""value"": true}], ""Wednesday"": [{""value"": true}], ""Thursday"": [{""value"": true}], ""Friday"": [{""value"": true}], ""Saturday"": [{""value"": true}], ""Sunday"": [{""value"": true}], ""Timing"": [{""value"": {""DayPart"": [{""value"": ""All Day""}]}}]}}]}}]",Active,Tennis & Racquet Sports,Tennis Courts
89,Debary Golf and Country Club,1441,,,,,,,Outdoor Tennis Courts,Outdoor Clay Tennis Courts,Lighted Courts,,,1,"[{""value"": {""Season"": [{""value"": ""All Season""}], ""DayAndTiming"": [{""value"": {""Monday"": [{""value"": true}], ""Tuesday"": [{""value"": true}], ""Wednesday"": [{""value"": true}], ""Thursday"": [{""value"": true}], ""Friday"": [{""value"": true}], ""Saturday"": [{""value"": true}], ""Sunday"": [{""value"": true}], ""Timing"": [{""value"": {""StartTime"": [{""value"": ""07:00 AM""}], ""EndTime"": [{""value"": ""10:00 PM""}], ""DayPart"": [{""value"": ""All Day""}]}}]}}]}}]",Active,Tennis & Racquet Sports,Tennis Courts
90,Cozumel Country Club,1458,,,,,,,,,,,,1,"[{""value"": {""Season"": [{""value"": ""All Season""}], ""DayAndTiming"": [{""value"": {""Monday"": [{""value"": true}], ""Tuesday"": [{""value"": true}], ""Wednesday"": [{""value"": true}], ""Thursday"": [{""value"": true}], ""Friday"": [{""value"": true}], ""Saturday"": [{""value"": true}], ""Sunday"": [{""value"": true}], ""Timing"": [{""value"": {""DayPart"": [{""value"": ""All Day""}]}}]}}]}}]",Active,Tennis & Racquet Sports,Tennis Courts
91,University of Texas Club,1475,,,,,,,,,,,,1,"[{""value"": {""Season"": [{""value"": ""All Season""}], ""DayAndTiming"": [{""value"": {""Monday"": [{""value"": true}], ""Tuesday"": [{""value"": true}], ""Wednesday"": [{""value"": true}], ""Thursday"": [{""value"": true}], ""Friday"": [{""value"": true}], ""Saturday"": [{""value"": true}], ""Sunday"": [{""value"": true}], ""Timing"": [{""value"": {""DayPart"": [{""value"": ""All Day""}]}}]}}]}}]",Active,Tennis & Racquet Sports,Tennis Courts
92,Diamond Run Golf Club,1545,,,,,,,,,,,,1,"[{""value"": {""Season"": [{""value"": ""All Season""}], ""DayAndTiming"": [{""value"": {""Monday"": [{""value"": true}], ""Tuesday"": [{""value"": true}], ""Wednesday"": [{""value"": true}], ""Thursday"": [{""value"": true}], ""Friday"": [{""value"": true}], ""Saturday"": [{""value"": true}], ""Sunday"": [{""value"": true}], ""Timing"": [{""value"": {""DayPart"": [{""value"": ""All Day""}]}}]}}]}}]",Active,Tennis & Racquet Sports,Tennis Courts
93,Granite Bay Golf Club,1554,,,,,,,,,,,,1,"[{""value"": {""Season"": [{""value"": ""All Season""}], ""DayAndTiming"": [{""value"": {""Monday"": [{""value"": true}], ""Tuesday"": [{""value"": true}], ""Wednesday"": [{""value"": true}], ""Thursday"": [{""value"": true}], ""Friday"": [{""value"": true}], ""Saturday"": [{""value"": true}], ""Sunday"": [{""value"": true}], ""Timing"": [{""value"": {""StartTime"": [{""value"": ""0""}], ""EndTime"": [{""value"": ""0""}], ""DayPart"": [{""value"": ""All Day""}]}}]}}]}}]",Active,Tennis & Racquet Sports,Tennis Courts
94,Aspen Glen,1556,,,,,,,Outdoor Tennis Courts,Outdoor Clay Tennis Courts,,,,1,"[{""value"": {""Season"": [{""value"": ""All Season""}], ""DayAndTiming"": [{""value"": {""Monday"": [{""value"": true}], ""Tuesday"": [{""value"": true}], ""Wednesday"": [{""value"": true}], ""Thursday"": [{""value"": true}], ""Friday"": [{""value"": true}], ""Saturday"": [{""value"": true}], ""Sunday"": [{""value"": true}], ""Timing"": [{""value"": {""StartTime"": [{""value"": ""08:30 AM""}], ""EndTime"": [{""value"": ""08:00 PM""}], ""DayPart"": [{""value"": ""All Day""}]}}]}}]}}]",Active,Tennis & Racquet Sports,Tennis Courts
95,Vista Vallarta Club de Golf,1564,,,,,,,,,,,,1,"[{""value"": {""Season"": [{""value"": ""All Season""}], ""DayAndTiming"": [{""value"": {""Monday"": [{""value"": true}], ""Tuesday"": [{""value"": true}], ""Wednesday"": [{""value"": true}], ""Thursday"": [{""value"": true}], ""Friday"": [{""value"": true}], ""Saturday"": [{""value"": true}], ""Sunday"": [{""value"": true}], ""Timing"": [{""value"": {""DayPart"": [{""value"": ""All Day""}]}}]}}]}}]",Active,Tennis & Racquet Sports,Tennis Courts
96,Morgan Run Club & Resort,1578,5690 Cancha De Golf,,Rancho Santa Fe,CA,92091,USA,Outdoor Tennis Courts,,Lighted Courts,,,1,"[{""value"": {""Season"": [{""value"": ""All Season""}], ""DayAndTiming"": [{""value"": {""Monday"": [{""value"": true}], ""Tuesday"": [{""value"": true}], ""Wednesday"": [{""value"": true}], ""Thursday"": [{""value"": true}], ""Friday"": [{""value"": true}], ""Saturday"": [{""value"": true}], ""Sunday"": [{""value"": true}], ""Timing"": [{""value"": {""StartTime"": [{""value"": ""08:00 AM""}], ""EndTime"": [{""value"": ""09:00 PM""}], ""DayPart"": [{""value"": ""All Day""}]}}]}}]}}]",Active,Tennis & Racquet Sports,Tennis Courts
97,Hills of Lakeway Country Club,1579,One World of Tennis Sq,,Austin,Texas,78738,USA,Outdoor Tennis Courts,,Lighted Courts,,Indoor Tennis Courts,1,"[{""value"": {""Season"": [{""value"": ""All Season""}], ""DayAndTiming"": [{""value"": {""Monday"": [{""value"": true}], ""Tuesday"": [{""value"": true}], ""Wednesday"": [{""value"": true}], ""Thursday"": [{""value"": true}], ""Friday"": [{""value"": true}], ""Saturday"": [{""value"": true}], ""Sunday"": [{""value"": true}], ""Timing"": [{""value"": {""DayPart"": [{""value"": ""All Day""}]}}]}}]}}]",Active,Tennis & Racquet Sports,Tennis Courts
98,Stonebridge Ranch Country Club,1582,,,,,,,Outdoor Tennis Courts,,Lighted Courts,,,1,"[{""value"": {""Season"": [{""value"": ""All Season""}], ""DayAndTiming"": [{""value"": {""Monday"": [{""value"": true}], ""Tuesday"": [{""value"": true}], ""Wednesday"": [{""value"": true}], ""Thursday"": [{""value"": true}], ""Friday"": [{""value"": true}], ""Saturday"": [{""value"": true}], ""Sunday"": [{""value"": true}], ""Timing"": [{""value"": {""StartTime"": [{""value"": ""07:00 AM""}], ""EndTime"": [{""value"": ""10:00 PM""}], ""DayPart"": [{""value"": ""All Day""}]}}]}}]}}]",Active,Tennis & Racquet Sports,Tennis Courts
99,Stonebridge Ranch Country Club - Hills,2283,,,,,,,,,,,,1,"[{""value"": {""Season"": [{""value"": ""All Season""}], ""DayAndTiming"": [{""value"": {""Monday"": [{""value"": true}], ""Tuesday"": [{""value"": true}], ""Wednesday"": [{""value"": true}], ""Thursday"": [{""value"": true}], ""Friday"": [{""value"": true}], ""Saturday"": [{""value"": true}], ""Sunday"": [{""value"": true}], ""Timing"": [{""value"": {""DayPart"": [{""value"": ""All Day""}]}}]}}]}}]",Active,Tennis & Racquet Sports,Tennis Courts
100,Trophy Club Country Club,1584,1000 Trophy Club Dr,,Trophy Club,Tx,76262,USA,Outdoor Tennis Courts,,Lighted Courts,,,1,"[{""value"": {""Season"": [{""value"": ""All Season""}], ""DayAndTiming"": [{""value"": {""Monday"": [{""value"": true}], ""Tuesday"": [{""value"": true}], ""Wednesday"": [{""value"": true}], ""Thursday"": [{""value"": true}], ""Friday"": [{""value"": true}], ""Saturday"": [{""value"": true}], ""Sunday"": [{""value"": true}], ""Timing"": [{""value"": {""DayPart"": [{""value"": ""All Day""}]}}]}}]}}]",Active,Tennis & Racquet Sports,Tennis Courts
101,East Lake Woodlands,1588,,,,,,,Outdoor Tennis Courts,Outdoor Clay Tennis Courts,Lighted Courts,,,1,"[{""value"": {""Season"": [{""value"": ""All Season""}], ""DayAndTiming"": [{""value"": {""Monday"": [{""value"": true}], ""Tuesday"": [{""value"": true}], ""Wednesday"": [{""value"": true}], ""Thursday"": [{""value"": true}], ""Friday"": [{""value"": true}], ""Saturday"": [{""value"": true}], ""Sunday"": [{""value"": true}], ""Timing"": [{""value"": {""DayPart"": [{""value"": ""All Day""}]}}]}}]}}]",Active,Tennis & Racquet Sports,Tennis Courts
102,Deercreek Country Club,1591,,,,,,,,Outdoor Clay Tennis Courts,Lighted Courts,,,1,"[{""value"": {""Season"": [{""value"": ""All Season""}], ""DayAndTiming"": [{""value"": {""Monday"": [{""value"": true}], ""Tuesday"": [{""value"": true}], ""Wednesday"": [{""value"": true}], ""Thursday"": [{""value"": true}], ""Friday"": [{""value"": true}], ""Saturday"": [{""value"": true}], ""Sunday"": [{""value"": true}], ""Timing"": [{""value"": {""DayPart"": [{""value"": ""All Day""}]}}]}}]}}]",Active,Tennis & Racquet Sports,Tennis Courts
103,Country Club of Gwinnett,1592,na,na,na,na,na,na,,,,,,1,"[{""value"": {""Season"": [{""value"": ""All Season""}], ""DayAndTiming"": [{""value"": {""Monday"": [{""value"": true}], ""Tuesday"": [{""value"": true}], ""Wednesday"": [{""value"": true}], ""Thursday"": [{""value"": true}], ""Friday"": [{""value"": true}], ""Saturday"": [{""value"": true}], ""Sunday"": [{""value"": true}], ""Timing"": [{""value"": {""DayPart"": [{""value"": ""All Day""}]}}]}}]}}]",Active,Tennis & Racquet Sports,Tennis Courts
104,Eagles Landing CC,1593,,,,,,,Outdoor Tennis Courts,Outdoor Clay Tennis Courts,Lighted Courts,,,1,"[{""value"": {""Season"": [{""value"": ""All Season""}], ""DayAndTiming"": [{""value"": {""Monday"": [{""value"": true}], ""Tuesday"": [{""value"": true}], ""Wednesday"": [{""value"": true}], ""Thursday"": [{""value"": true}], ""Friday"": [{""value"": true}], ""Saturday"": [{""value"": true}], ""Sunday"": [{""value"": true}], ""Timing"": [{""value"": {""DayPart"": [{""value"": ""All Day""}]}}]}}]}}]",Active,Tennis & Racquet Sports,Tennis Courts
105,Devils Ridge Golf Club,1594,,,,,,,,,,,,1,"[{""value"": {""Season"": [{""value"": ""All Season""}], ""DayAndTiming"": [{""value"": {""Monday"": [{""value"": true}], ""Tuesday"": [{""value"": true}], ""Wednesday"": [{""value"": true}], ""Thursday"": [{""value"": true}], ""Friday"": [{""value"": true}], ""Saturday"": [{""value"": true}], ""Sunday"": [{""value"": true}], ""Timing"": [{""value"": {""DayPart"": [{""value"": ""All Day""}]}}]}}]}}]",Active,Tennis & Racquet Sports,Tennis Courts
106,Lochmere,1595,,,,,,,,,,,,1,"[{""value"": {""Season"": [{""value"": ""All Season""}], ""DayAndTiming"": [{""value"": {""Monday"": [{""value"": true}], ""Tuesday"": [{""value"": true}], ""Wednesday"": [{""value"": true}], ""Thursday"": [{""value"": true}], ""Friday"": [{""value"": true}], ""Saturday"": [{""value"": true}], ""Sunday"": [{""value"": true}], ""Timing"": [{""value"": {""DayPart"": [{""value"": ""All Day""}]}}]}}]}}]",Active,Tennis & Racquet Sports,Tennis Courts
107,The Neuse Golf Club,1596,,,,,,,,,,,,1,"[{""value"": {""Season"": [{""value"": ""All Season""}], ""DayAndTiming"": [{""value"": {""Monday"": [{""value"": true}], ""Tuesday"": [{""value"": true}], ""Wednesday"": [{""value"": true}], ""Thursday"": [{""value"": true}], ""Friday"": [{""value"": true}], ""Saturday"": [{""value"": true}], ""Sunday"": [{""value"": true}], ""Timing"": [{""value"": {""DayPart"": [{""value"": ""All Day""}]}}]}}]}}]",Active,Tennis & Racquet Sports,Tennis Courts
108,Nags Head Golf Links,1597,,,,,,,,,,,,1,"[{""value"": {""Season"": [{""value"": ""All Season""}], ""DayAndTiming"": [{""value"": {""Monday"": [{""value"": true}], ""Tuesday"": [{""value"": true}], ""Wednesday"": [{""value"": true}], ""Thursday"": [{""value"": true}], ""Friday"": [{""value"": true}], ""Saturday"": [{""value"": true}], ""Sunday"": [{""value"": true}], ""Timing"": [{""value"": {""DayPart"": [{""value"": ""All Day""}]}}]}}]}}]",Active,Tennis & Racquet Sports,Tennis Courts
109,Currituck Club,1598,,,,,,,,,,,,1,"[{""value"": {""Season"": [{""value"": ""All Season""}], ""DayAndTiming"": [{""value"": {""Monday"": [{""value"": true}], ""Tuesday"": [{""value"": true}], ""Wednesday"": [{""value"": true}], ""Thursday"": [{""value"": true}], ""Friday"": [{""value"": true}], ""Saturday"": [{""value"": true}], ""Sunday"": [{""value"": true}], ""Timing"": [{""value"": {""DayPart"": [{""value"": ""All Day""}]}}]}}]}}]",Active,Tennis & Racquet Sports,Tennis Courts
110,Nicklaus Golf Club at Lionsgate,1644,N/a,,,,,,Outdoor Tennis Courts,,,,,1,"[{""value"": {""Season"": [{""value"": ""All Season""}], ""DayAndTiming"": [{""value"": {""Tuesday"": [{""value"": true}], ""Wednesday"": [{""value"": true}], ""Thursday"": [{""value"": true}], ""Friday"": [{""value"": true}], ""Saturday"": [{""value"": true}], ""Sunday"": [{""value"": true}], ""Timing"": [{""value"": {""DayPart"": [{""value"": ""All Day""}]}}]}}]}}]",Active,Tennis & Racquet Sports,Tennis Courts
111,Laurel Springs Golf Club,1668,,,,,,,,,,,,1,"[{""value"": {""Season"": [{""value"": ""All Season""}], ""DayAndTiming"": [{""value"": {""Monday"": [{""value"": true}], ""Tuesday"": [{""value"": true}], ""Wednesday"": [{""value"": true}], ""Thursday"": [{""value"": true}], ""Friday"": [{""value"": true}], ""Saturday"": [{""value"": true}], ""Sunday"": [{""value"": true}], ""Timing"": [{""value"": {""DayPart"": [{""value"": ""All Day""}]}}]}}]}}]",Active,Tennis & Racquet Sports,Tennis Courts
112,Bear's Best atlanta,1682,,,,,,,,,,,,1,"[{""value"": {""Season"": [{""value"": ""All Season""}], ""DayAndTiming"": [{""value"": {""Monday"": [{""value"": true}], ""Tuesday"": [{""value"": true}], ""Wednesday"": [{""value"": true}], ""Thursday"": [{""value"": true}], ""Friday"": [{""value"": true}], ""Saturday"": [{""value"": true}], ""Sunday"": [{""value"": true}], ""Timing"": [{""value"": {""DayPart"": [{""value"": ""All Day""}]}}]}}]}}]",Active,Tennis & Racquet Sports,Tennis Courts
113,Bear's Best Las Vegas,1688,,,,,,,,,,,,1,"[{""value"": {""Season"": [{""value"": ""All Season""}], ""DayAndTiming"": [{""value"": {""Monday"": [{""value"": true}], ""Tuesday"": [{""value"": true}], ""Wednesday"": [{""value"": true}], ""Thursday"": [{""value"": true}], ""Friday"": [{""value"": true}], ""Saturday"": [{""value"": true}], ""Sunday"": [{""value"": true}], ""Timing"": [{""value"": {""DayPart"": [{""value"": ""All Day""}]}}]}}]}}]",Active,Tennis & Racquet Sports,Tennis Courts
114,Piedmont Golfers Club ,1724,,,,,,,,,,,,1,"[{""value"": {""Season"": [{""value"": ""All Season""}], ""DayAndTiming"": [{""value"": {""Monday"": [{""value"": true}], ""Tuesday"": [{""value"": true}], ""Wednesday"": [{""value"": true}], ""Thursday"": [{""value"": true}], ""Friday"": [{""value"": true}], ""Saturday"": [{""value"": true}], ""Sunday"": [{""value"": true}], ""Timing"": [{""value"": {""DayPart"": [{""value"": ""All Day""}]}}]}}]}}]",Active,Tennis & Racquet Sports,Tennis Courts
115,Empire Ranch Golf Club,1798,,,,,,,,,,,,1,"[{""value"": {""Season"": [{""value"": ""All Season""}], ""DayAndTiming"": [{""value"": {""Monday"": [{""value"": true}], ""Tuesday"": [{""value"": true}], ""Wednesday"": [{""value"": true}], ""Thursday"": [{""value"": true}], ""Friday"": [{""value"": true}], ""Saturday"": [{""value"": true}], ""Sunday"": [{""value"": true}], ""Timing"": [{""value"": {""DayPart"": [{""value"": ""All Day""}]}}]}}]}}]",Active,Tennis & Racquet Sports,Tennis Courts
116,Bluegrass,2069,,,,,,,Outdoor Tennis Courts,,Lighted Courts,,,1,"[{""value"": {""Season"": [{""value"": ""All Season""}], ""DayAndTiming"": [{""value"": {""Monday"": [{""value"": true}], ""Tuesday"": [{""value"": true}], ""Wednesday"": [{""value"": true}], ""Thursday"": [{""value"": true}], ""Friday"": [{""value"": true}], ""Saturday"": [{""value"": true}], ""Sunday"": [{""value"": true}], ""Timing"": [{""value"": {""DayPart"": [{""value"": ""All Day""}]}}]}}]}}]",Active,Tennis & Racquet Sports,Tennis Courts
117,Mid America Club,2202,,,,,,,,,,,,1,"[{""value"": {""Season"": [{""value"": ""All Season""}], ""DayAndTiming"": [{""value"": {""Monday"": [{""value"": true}], ""Tuesday"": [{""value"": true}], ""Wednesday"": [{""value"": true}], ""Thursday"": [{""value"": true}], ""Friday"": [{""value"": true}], ""Saturday"": [{""value"": true}], ""Sunday"": [{""value"": true}], ""Timing"": [{""value"": {""DayPart"": [{""value"": ""All Day""}]}}]}}]}}]",Active,Tennis & Racquet Sports,Tennis Courts
118,Seville Golf & Country Club,2280,,,,,,,Outdoor Tennis Courts,,Lighted Courts,,,1,"[{""value"": {""Season"": [{""value"": ""All Season""}], ""DayAndTiming"": [{""value"": {""Monday"": [{""value"": true}], ""Tuesday"": [{""value"": true}], ""Wednesday"": [{""value"": true}], ""Thursday"": [{""value"": true}], ""Timing"": [{""value"": {""StartTime"": [{""value"": ""05:00 AM""}], ""EndTime"": [{""value"": ""10:00 PM""}], ""DayPart"": [{""value"": ""All Day""}]}}]}}, {""value"": {""Friday"": [{""value"": true}], ""Timing"": [{""value"": {""StartTime"": [{""value"": ""05:00 AM""}], ""EndTime"": [{""value"": ""09:00 PM""}], ""DayPart"": [{""value"": ""All Day""}]}}]}}, {""value"": {""Saturday"": [{""value"": true}], ""Sunday"": [{""value"": true}], ""Timing"": [{""value"": {""StartTime"": [{""value"": ""07:00 AM""}], ""EndTime"": [{""value"": ""09:00 PM""}], ""DayPart"": [{""value"": ""All Day""}]}}]}}]}}]",Active,Tennis & Racquet Sports,Tennis Courts
119,Deerwood Country Club ,2282,,,,,,,,,,,,1,"[{""value"": {""Season"": [{""value"": ""All Season""}], ""DayAndTiming"": [{""value"": {""Monday"": [{""value"": true}], ""Tuesday"": [{""value"": true}], ""Wednesday"": [{""value"": true}], ""Thursday"": [{""value"": true}], ""Friday"": [{""value"": true}], ""Saturday"": [{""value"": true}], ""Sunday"": [{""value"": true}], ""Timing"": [{""value"": {""DayPart"": [{""value"": ""All Day""}]}}]}}]}}]",Active,Tennis & Racquet Sports,Tennis Courts
120,World of Tennis,2286,1 World of Tennis Square,,Austin,TX,78738,USA,Outdoor Tennis Courts,,Lighted Courts,,Indoor Tennis Courts,1,"[{""value"": {""Season"": [{""value"": ""All Season""}], ""DayAndTiming"": [{""value"": {""Monday"": [{""value"": true}], ""Tuesday"": [{""value"": true}], ""Wednesday"": [{""value"": true}], ""Thursday"": [{""value"": true}], ""Friday"": [{""value"": true}], ""Saturday"": [{""value"": true}], ""Sunday"": [{""value"": true}], ""Timing"": [{""value"": {""DayPart"": [{""value"": ""All Day""}]}}]}}]}}]",Active,Tennis & Racquet Sports,Tennis Courts
121,Texas Tech Club,2504,na,,,,,,,,,,,1,"[{""value"": {""Season"": [{""value"": ""All Season""}], ""DayAndTiming"": [{""value"": {""Monday"": [{""value"": true}], ""Timing"": [{""value"": {""EndTime"": [{""value"": ""n""}], ""DayPart"": [{""value"": ""All Day""}]}}]}}, {""value"": {""Tuesday"": [{""value"": true}], ""Wednesday"": [{""value"": true}], ""Thursday"": [{""value"": true}], ""Timing"": [{""value"": {""DayPart"": [{""value"": ""All Day""}]}}]}}, {""value"": {""Friday"": [{""value"": true}], ""Timing"": [{""value"": {""EndTime"": [{""value"": ""nq""}], ""DayPart"": [{""value"": ""All Day""}]}}]}}, {""value"": {""Saturday"": [{""value"": true}], ""Sunday"": [{""value"": true}], ""Timing"": [{""value"": {""StartTime"": [{""value"": ""n""}], ""EndTime"": [{""value"": ""n""}], ""DayPart"": [{""value"": ""All Day""}]}}]}}]}}]",Active,Tennis & Racquet Sports,Tennis Courts
122,Country Club of the South,2505,,,,,,,Outdoor Tennis Courts,Outdoor Clay Tennis Courts,Lighted Courts,,,1,"[{""value"": {""Season"": [{""value"": ""All Season""}], ""DayAndTiming"": [{""value"": {""Monday"": [{""value"": true}], ""Tuesday"": [{""value"": true}], ""Wednesday"": [{""value"": true}], ""Thursday"": [{""value"": true}], ""Friday"": [{""value"": true}], ""Saturday"": [{""value"": true}], ""Sunday"": [{""value"": true}], ""Timing"": [{""value"": {""StartTime"": [{""value"": ""07:00 AM""}], ""EndTime"": [{""value"": ""09:00 PM""}], ""DayPart"": [{""value"": ""All Day""}]}}]}}]}}]",Active,Tennis & Racquet Sports,Tennis Courts
123,Commerce Club- Atlanta,2506,,,,,,,,,,,,1,"[{""value"": {""Season"": [{""value"": ""All Season""}], ""DayAndTiming"": [{""value"": {""Monday"": [{""value"": true}], ""Tuesday"": [{""value"": true}], ""Wednesday"": [{""value"": true}], ""Thursday"": [{""value"": true}], ""Friday"": [{""value"": true}], ""Saturday"": [{""value"": true}], ""Sunday"": [{""value"": true}], ""Timing"": [{""value"": {""DayPart"": [{""value"": ""All Day""}]}}]}}]}}]",Active,Tennis & Racquet Sports,Tennis Courts
124,Wind Watch Golf & CC,2594,,,,,,,Outdoor Tennis Courts,,,,,1,"[{""value"": {""Season"": [{""value"": ""All Season""}], ""DayAndTiming"": [{""value"": {""Monday"": [{""value"": true}], ""Tuesday"": [{""value"": true}], ""Wednesday"": [{""value"": true}], ""Thursday"": [{""value"": true}], ""Friday"": [{""value"": true}], ""Sunday"": [{""value"": true}], ""Timing"": [{""value"": {""DayPart"": [{""value"": ""All Day""}]}}]}}, {""value"": {""Saturday"": [{""value"": true}], ""Timing"": [{""value"": {""EndTime"": [{""value"": ""N./A""}], ""DayPart"": [{""value"": ""All Day""}]}}]}}]}}]",Active,Tennis & Racquet Sports,Tennis Courts
125,Hamlet,2595,,,,,,,Outdoor Tennis Courts,Outdoor Clay Tennis Courts,Lighted Courts,,,1,"[{""value"": {""Season"": [{""value"": ""All Season""}], ""DayAndTiming"": [{""value"": {""Monday"": [{""value"": true}], ""Tuesday"": [{""value"": true}], ""Wednesday"": [{""value"": true}], ""Thursday"": [{""value"": true}], ""Friday"": [{""value"": true}], ""Saturday"": [{""value"": true}], ""Sunday"": [{""value"": true}], ""Timing"": [{""value"": {""StartTime"": [{""value"": ""8""}], ""EndTime"": [{""value"": ""9""}], ""DayPart"": [{""value"": ""All Day""}]}}]}}]}}]",Active,Tennis & Racquet Sports,Tennis Courts
126,Willow Creek Golf & CC,2596,,,,,,,,,,,,1,"[{""value"": {""Season"": [{""value"": ""All Season""}], ""DayAndTiming"": [{""value"": {""Monday"": [{""value"": true}], ""Tuesday"": [{""value"": true}], ""Wednesday"": [{""value"": true}], ""Thursday"": [{""value"": true}], ""Friday"": [{""value"": true}], ""Saturday"": [{""value"": true}], ""Sunday"": [{""value"": true}], ""Timing"": [{""value"": {""DayPart"": [{""value"": ""All Day""}]}}]}}]}}]",Active,Tennis & Racquet Sports,Tennis Courts
127,Canterwood ,2602,,,,,,,Outdoor Tennis Courts,,,,,1,"[{""value"": {""Season"": [{""value"": ""All Season""}], ""DayAndTiming"": [{""value"": {""Monday"": [{""value"": true}], ""Tuesday"": [{""value"": true}], ""Wednesday"": [{""value"": true}], ""Thursday"": [{""value"": true}], ""Friday"": [{""value"": true}], ""Saturday"": [{""value"": true}], ""Sunday"": [{""value"": true}], ""Timing"": [{""value"": {""DayPart"": [{""value"": ""All Day""}]}}]}}]}}]",Active,Tennis & Racquet Sports,Tennis Courts
128,Houston Club,2604,,,,,,,,,,,,1,"[{""value"": {""Season"": [{""value"": ""All Season""}], ""DayAndTiming"": [{""value"": {""Monday"": [{""value"": true}], ""Tuesday"": [{""value"": true}], ""Wednesday"": [{""value"": true}], ""Thursday"": [{""value"": true}], ""Friday"": [{""value"": true}], ""Saturday"": [{""value"": true}], ""Sunday"": [{""value"": true}], ""Timing"": [{""value"": {""DayPart"": [{""value"": ""All Day""}]}}]}}]}}]",Active,Tennis & Racquet Sports,Tennis Courts
129,Hartefeld National,2616,,,,,,,,,,,,1,"[{""value"": {""Season"": [{""value"": ""All Season""}], ""DayAndTiming"": [{""value"": {""Monday"": [{""value"": true}], ""Tuesday"": [{""value"": true}], ""Wednesday"": [{""value"": true}], ""Thursday"": [{""value"": true}], ""Friday"": [{""value"": true}], ""Saturday"": [{""value"": true}], ""Sunday"": [{""value"": true}], ""Timing"": [{""value"": {""DayPart"": [{""value"": ""All Day""}]}}]}}]}}]",Active,Tennis & Racquet Sports,Tennis Courts
130,Oak Tree Country Club,2661,,,,,,,Outdoor Tennis Courts,,Lighted Courts,,Indoor Tennis Courts,1,"[{""value"": {""Season"": [{""value"": ""All Season""}], ""DayAndTiming"": [{""value"": {""Monday"": [{""value"": true}], ""Tuesday"": [{""value"": true}], ""Wednesday"": [{""value"": true}], ""Thursday"": [{""value"": true}], ""Friday"": [{""value"": true}], ""Saturday"": [{""value"": true}], ""Sunday"": [{""value"": true}], ""Timing"": [{""value"": {""DayPart"": [{""value"": ""All Day""}]}}]}}]}}]",Active,Tennis & Racquet Sports,Tennis Courts
131,Cherry Valley,2662,131 Country Club Drive,,Skillman,NJ,8558,United States,Outdoor Tennis Courts,Outdoor Clay Tennis Courts,Lighted Courts,,,1,"[{""value"": {""Season"": [{""value"": ""All Season""}], ""DayAndTiming"": [{""value"": {""Monday"": [{""value"": true}], ""Tuesday"": [{""value"": true}], ""Wednesday"": [{""value"": true}], ""Thursday"": [{""value"": true}], ""Friday"": [{""value"": true}], ""Saturday"": [{""value"": true}], ""Sunday"": [{""value"": true}], ""Timing"": [{""value"": {""StartTime"": [{""value"": ""09:00 AM""}], ""EndTime"": [{""value"": ""09:00 PM""}], ""DayPart"": [{""value"": ""All Day""}]}}]}}]}}]",Active,Tennis & Racquet Sports,Tennis Courts
132,Chantilly National Golf & Country Club,2700,,,,,,,Outdoor Tennis Courts,Outdoor Clay Tennis Courts,Lighted Courts,,,1,"[{""value"": {""Season"": [{""value"": ""All Season""}], ""DayAndTiming"": [{""value"": {""Monday"": [{""value"": true}], ""Tuesday"": [{""value"": true}], ""Wednesday"": [{""value"": true}], ""Thursday"": [{""value"": true}], ""Friday"": [{""value"": true}], ""Saturday"": [{""value"": true}], ""Sunday"": [{""value"": true}], ""Timing"": [{""value"": {""StartTime"": [{""value"": ""Open at any time, weather permitting""}], ""EndTime"": [{""value"": ""Open at any time, weather permitting""}], ""DayPart"": [{""value"": ""All Day""}]}}]}}]}}]",Active,Tennis & Racquet Sports,Tennis Courts
133,Clubs of Prestonwood,2701,15909 Preston Rd,,Dallas,TX,75248,United States,Outdoor Tennis Courts,,Lighted Courts,,,1,"[{""value"": {""Season"": [{""value"": ""All Season""}], ""DayAndTiming"": [{""value"": {""Monday"": [{""value"": true}], ""Tuesday"": [{""value"": true}], ""Wednesday"": [{""value"": true}], ""Thursday"": [{""value"": true}], ""Friday"": [{""value"": true}], ""Saturday"": [{""value"": true}], ""Sunday"": [{""value"": true}], ""Timing"": [{""value"": {""DayPart"": [{""value"": ""All Day""}]}}]}}]}}]",Active,Tennis & Racquet Sports,Tennis Courts
134,Clubs of Prestonwood - The Hills,2702,,,,,,,,,,,,1,"[{""value"": {""Season"": [{""value"": ""All Season""}], ""DayAndTiming"": [{""value"": {""Monday"": [{""value"": true}], ""Tuesday"": [{""value"": true}], ""Wednesday"": [{""value"": true}], ""Thursday"": [{""value"": true}], ""Friday"": [{""value"": true}], ""Saturday"": [{""value"": true}], ""Sunday"": [{""value"": true}], ""Timing"": [{""value"": {""DayPart"": [{""value"": ""All Day""}]}}]}}]}}]",Active,Tennis & Racquet Sports,Tennis Courts
135,TPC Piper Glen,2703,,,,,,,,Outdoor Clay Tennis Courts,,,,1,"[{""value"": {""Season"": [{""value"": ""All Season""}], ""DayAndTiming"": [{""value"": {""Tuesday"": [{""value"": true}], ""Wednesday"": [{""value"": true}], ""Thursday"": [{""value"": true}], ""Friday"": [{""value"": true}], ""Saturday"": [{""value"": true}], ""Sunday"": [{""value"": true}], ""Timing"": [{""value"": {""StartTime"": [{""value"": ""07:30 AM""}], ""EndTime"": [{""value"": ""09:00 PM""}], ""DayPart"": [{""value"": ""All Day""}]}}]}}]}}]",Active,Tennis & Racquet Sports,Tennis Courts
136,TPC Michigan,2704,,,,,,,,,,,,1,"[{""value"": {""Season"": [{""value"": ""All Season""}], ""DayAndTiming"": [{""value"": {""Monday"": [{""value"": true}], ""Tuesday"": [{""value"": true}], ""Wednesday"": [{""value"": true}], ""Thursday"": [{""value"": true}], ""Friday"": [{""value"": true}], ""Saturday"": [{""value"": true}], ""Sunday"": [{""value"": true}], ""Timing"": [{""value"": {""DayPart"": [{""value"": ""All Day""}]}}]}}]}}]",Active,Tennis & Racquet Sports,Tennis Courts
137,Baylor,2705,na,na,na,na,na,na,,,,,,1,"[{""value"": {""Season"": [{""value"": ""All Season""}], ""DayAndTiming"": [{""value"": {""Monday"": [{""value"": true}], ""Tuesday"": [{""value"": true}], ""Wednesday"": [{""value"": true}], ""Thursday"": [{""value"": true}], ""Friday"": [{""value"": true}], ""Saturday"": [{""value"": true}], ""Sunday"": [{""value"": true}], ""Timing"": [{""value"": {""DayPart"": [{""value"": ""All Day""}]}}]}}]}}]",Active,Tennis & Racquet Sports,Tennis Courts
138,Oro Valley,2748,,,,,,,,,,,,1,"[{""value"": {""Season"": [{""value"": ""All Season""}], ""DayAndTiming"": [{""value"": {""Monday"": [{""value"": true}], ""Tuesday"": [{""value"": true}], ""Wednesday"": [{""value"": true}], ""Thursday"": [{""value"": true}], ""Friday"": [{""value"": true}], ""Saturday"": [{""value"": true}], ""Sunday"": [{""value"": true}], ""Timing"": [{""value"": {""DayPart"": [{""value"": ""All Day""}]}}]}}]}}]",Active,Tennis & Racquet Sports,Tennis Courts
139,Ravinia Green Country Club,2753,,,,,,,,Outdoor Clay Tennis Courts,,,,1,"[{""value"": {""Season"": [{""value"": ""All Season""}], ""DayAndTiming"": [{""value"": {""Monday"": [{""value"": true}], ""Tuesday"": [{""value"": true}], ""Wednesday"": [{""value"": true}], ""Thursday"": [{""value"": true}], ""Friday"": [{""value"": true}], ""Saturday"": [{""value"": true}], ""Sunday"": [{""value"": true}], ""Timing"": [{""value"": {""DayPart"": [{""value"": ""All Day""}]}}]}}]}}]",Active,Tennis & Racquet Sports,Tennis Courts
140,Rolling Green Country Club,2756,,,,,,,,,,,,1,"[{""value"": {""Season"": [{""value"": ""All Season""}], ""DayAndTiming"": [{""value"": {""Monday"": [{""value"": true}], ""Tuesday"": [{""value"": true}], ""Wednesday"": [{""value"": true}], ""Thursday"": [{""value"": true}], ""Friday"": [{""value"": true}], ""Saturday"": [{""value"": true}], ""Sunday"": [{""value"": true}], ""Timing"": [{""value"": {""DayPart"": [{""value"": ""All Day""}]}}]}}]}}]",Active,Tennis & Racquet Sports,Tennis Courts
141,Brookfield,2771,same,,,,,,Outdoor Tennis Courts,Outdoor Clay Tennis Courts,Lighted Courts,,,1,"[{""value"": {""Season"": [{""value"": ""All Season""}], ""DayAndTiming"": [{""value"": {""Monday"": [{""value"": true}], ""Tuesday"": [{""value"": true}], ""Wednesday"": [{""value"": true}], ""Thursday"": [{""value"": true}], ""Friday"": [{""value"": true}], ""Saturday"": [{""value"": true}], ""Sunday"": [{""value"": true}], ""Timing"": [{""value"": {""DayPart"": [{""value"": ""All Day""}]}}]}}]}}]",Active,Tennis & Racquet Sports,Tennis Courts
142,Ford's Colony Country Club,2773,,,,,,,,,,,,1,"[{""value"": {""Season"": [{""value"": ""All Season""}], ""DayAndTiming"": [{""value"": {""Monday"": [{""value"": true}], ""Tuesday"": [{""value"": true}], ""Wednesday"": [{""value"": true}], ""Thursday"": [{""value"": true}], ""Friday"": [{""value"": true}], ""Saturday"": [{""value"": true}], ""Sunday"": [{""value"": true}], ""Timing"": [{""value"": {""DayPart"": [{""value"": ""All Day""}]}}]}}]}}]",Active,Tennis & Racquet Sports,Tennis Courts
143,Firethorne Country Club,2775,1057 Spyglass Lane,,Marvin ,NC,28173,,Outdoor Tennis Courts,Outdoor Clay Tennis Courts,Lighted Courts,,,1,"[{""value"": {""Season"": [{""value"": ""All Season""}], ""DayAndTiming"": [{""value"": {""Monday"": [{""value"": true}], ""Tuesday"": [{""value"": true}], ""Wednesday"": [{""value"": true}], ""Thursday"": [{""value"": true}], ""Friday"": [{""value"": true}], ""Saturday"": [{""value"": true}], ""Sunday"": [{""value"": true}], ""Timing"": [{""value"": {""StartTime"": [{""value"": ""07:00 AM""}], ""EndTime"": [{""value"": ""10:00 PM""}], ""DayPart"": [{""value"": ""All Day""}]}}]}}]}}]",Active,Tennis & Racquet Sports,Tennis Courts
144,Bermuda Run Country Club,2777,,,,,,,,,,,,1,"[{""value"": {""Season"": [{""value"": ""All Season""}], ""DayAndTiming"": [{""value"": {""Monday"": [{""value"": true}], ""Tuesday"": [{""value"": true}], ""Wednesday"": [{""value"": true}], ""Thursday"": [{""value"": true}], ""Friday"": [{""value"": true}], ""Saturday"": [{""value"": true}], ""Sunday"": [{""value"": true}], ""Timing"": [{""value"": {""DayPart"": [{""value"": ""All Day""}]}}]}}]}}]",Active,Tennis & Racquet Sports,Tennis Courts
145,Bermuda Run Country Club - West,2786,,,,,,,,,,,,1,"[{""value"": {""Season"": [{""value"": ""All Season""}], ""DayAndTiming"": [{""value"": {""Monday"": [{""value"": true}], ""Tuesday"": [{""value"": true}], ""Wednesday"": [{""value"": true}], ""Thursday"": [{""value"": true}], ""Friday"": [{""value"": true}], ""Saturday"": [{""value"": true}], ""Sunday"": [{""value"": true}], ""Timing"": [{""value"": {""DayPart"": [{""value"": ""All Day""}]}}]}}]}}]",Active,Tennis & Racquet Sports,Tennis Courts
146,Temple Hills Country Club,2779,,,,,,,Outdoor Tennis Courts,,Lighted Courts,,,1,"[{""value"": {""Season"": [{""value"": ""All Season""}], ""DayAndTiming"": [{""value"": {""Monday"": [{""value"": true}], ""Tuesday"": [{""value"": true}], ""Wednesday"": [{""value"": true}], ""Thursday"": [{""value"": true}], ""Friday"": [{""value"": true}], ""Saturday"": [{""value"": true}], ""Sunday"": [{""value"": true}], ""Timing"": [{""value"": {""StartTime"": [{""value"": ""07:00 AM""}], ""EndTime"": [{""value"": ""08:00 PM""}], ""DayPart"": [{""value"": ""All Day""}]}}]}}]}}]",Active,Tennis & Racquet Sports,Tennis Courts
147,Braelinn Golf Club,2806,,,,,,,Outdoor Tennis Courts,,Lighted Courts,,,1,"[{""value"": {""Season"": [{""value"": ""All Season""}], ""DayAndTiming"": [{""value"": {""Monday"": [{""value"": true}], ""Tuesday"": [{""value"": true}], ""Thursday"": [{""value"": true}], ""Friday"": [{""value"": true}], ""Saturday"": [{""value"": true}], ""Sunday"": [{""value"": true}], ""Timing"": [{""value"": {""StartTime"": [{""value"": ""07:00 AM""}], ""EndTime"": [{""value"": ""10:00 PM""}], ""DayPart"": [{""value"": ""All Day""}]}}]}}]}}]",Active,Tennis & Racquet Sports,Tennis Courts
148,Canongate 1 GC,2808,,,,,,,Outdoor Tennis Courts,,Lighted Courts,,,1,"[{""value"": {""Season"": [{""value"": ""All Season""}], ""DayAndTiming"": [{""value"": {""Monday"": [{""value"": true}], ""Tuesday"": [{""value"": true}], ""Wednesday"": [{""value"": true}], ""Thursday"": [{""value"": true}], ""Friday"": [{""value"": true}], ""Saturday"": [{""value"": true}], ""Sunday"": [{""value"": true}], ""Timing"": [{""value"": {""DayPart"": [{""value"": ""All Day""}]}}]}}]}}]",Active,Tennis & Racquet Sports,Tennis Courts
149,Chapel Hills Golf Club,2810,,,,,,,Outdoor Tennis Courts,,,,,1,"[{""value"": {""Season"": [{""value"": ""All Season""}], ""DayAndTiming"": [{""value"": {""Tuesday"": [{""value"": true}], ""Wednesday"": [{""value"": true}], ""Thursday"": [{""value"": true}], ""Friday"": [{""value"": true}], ""Saturday"": [{""value"": true}], ""Sunday"": [{""value"": true}], ""Timing"": [{""value"": {""StartTime"": [{""value"": ""08:00 AM""}], ""EndTime"": [{""value"": ""11:00 PM""}], ""DayPart"": [{""value"": ""All Day""}]}}]}}]}}]",Active,Tennis & Racquet Sports,Tennis Courts
150,Flat Creek Country Club,2812,,,,,,,Outdoor Tennis Courts,,,,,1,"[{""value"": {""Season"": [{""value"": ""All Season""}], ""DayAndTiming"": [{""value"": {""Monday"": [{""value"": true}], ""Timing"": [{""value"": {""DayPart"": [{""value"": ""All Day""}]}}]}}, {""value"": {""Tuesday"": [{""value"": true}], ""Wednesday"": [{""value"": true}], ""Thursday"": [{""value"": true}], ""Friday"": [{""value"": true}], ""Saturday"": [{""value"": true}], ""Sunday"": [{""value"": true}], ""Timing"": [{""value"": {""StartTime"": [{""value"": ""7""}], ""EndTime"": [{""value"": ""7""}], ""DayPart"": [{""value"": ""All Day""}]}}]}}]}}]",Active,Tennis & Racquet Sports,Tennis Courts
151,White Oak GC,2814,,,,,,,Outdoor Tennis Courts,,Lighted Courts,,,1,"[{""value"": {""Season"": [{""value"": ""All Season""}], ""DayAndTiming"": [{""value"": {""Monday"": [{""value"": true}], ""Tuesday"": [{""value"": true}], ""Wednesday"": [{""value"": true}], ""Thursday"": [{""value"": true}], ""Friday"": [{""value"": true}], ""Saturday"": [{""value"": true}], ""Sunday"": [{""value"": true}], ""Timing"": [{""value"": {""DayPart"": [{""value"": ""All Day""}]}}]}}]}}]",Active,Tennis & Racquet Sports,Tennis Courts
152,Mirror Lake,2816,,,,,,,Outdoor Tennis Courts,,Lighted Courts,,,1,"[{""value"": {""Season"": [{""value"": ""All Season""}], ""DayAndTiming"": [{""value"": {""Monday"": [{""value"": true}], ""Tuesday"": [{""value"": true}], ""Wednesday"": [{""value"": true}], ""Thursday"": [{""value"": true}], ""Friday"": [{""value"": true}], ""Saturday"": [{""value"": true}], ""Sunday"": [{""value"": true}], ""Timing"": [{""value"": {""StartTime"": [{""value"": ""08:00 AM""}], ""EndTime"": [{""value"": ""08:00 PM""}], ""DayPart"": [{""value"": ""All Day""}]}}]}}]}}]",Active,Tennis & Racquet Sports,Tennis Courts
153,Planterra Ridge Golf Club,2818,,,,,,,,,,,,1,"[{""value"": {""Season"": [{""value"": ""All Season""}], ""DayAndTiming"": [{""value"": {""Monday"": [{""value"": true}], ""Tuesday"": [{""value"": true}], ""Wednesday"": [{""value"": true}], ""Thursday"": [{""value"": true}], ""Friday"": [{""value"": true}], ""Saturday"": [{""value"": true}], ""Sunday"": [{""value"": true}], ""Timing"": [{""value"": {""DayPart"": [{""value"": ""All Day""}]}}]}}]}}]",Active,Tennis & Racquet Sports,Tennis Courts
154,Windermere Golf Club,2820,na,na,na,na,na,na,,,,,,1,"[{""value"": {""Season"": [{""value"": ""All Season""}], ""DayAndTiming"": [{""value"": {""Monday"": [{""value"": true}], ""Tuesday"": [{""value"": true}], ""Wednesday"": [{""value"": true}], ""Thursday"": [{""value"": true}], ""Friday"": [{""value"": true}], ""Saturday"": [{""value"": true}], ""Sunday"": [{""value"": true}], ""Timing"": [{""value"": {""DayPart"": [{""value"": ""All Day""}]}}]}}]}}]",Active,Tennis & Racquet Sports,Tennis Courts
155,Hamilton Mill Golf Club,2822,,,,,,,,,,,,1,"[{""value"": {""Season"": [{""value"": ""All Season""}], ""DayAndTiming"": [{""value"": {""Monday"": [{""value"": true}], ""Tuesday"": [{""value"": true}], ""Wednesday"": [{""value"": true}], ""Thursday"": [{""value"": true}], ""Friday"": [{""value"": true}], ""Saturday"": [{""value"": true}], ""Sunday"": [{""value"": true}], ""Timing"": [{""value"": {""DayPart"": [{""value"": ""All Day""}]}}]}}]}}]",Active,Tennis & Racquet Sports,Tennis Courts
156,River Forest,2824,,,,,,,,,,,,1,"[{""value"": {""Season"": [{""value"": ""All Season""}], ""DayAndTiming"": [{""value"": {""Monday"": [{""value"": true}], ""Tuesday"": [{""value"": true}], ""Wednesday"": [{""value"": true}], ""Thursday"": [{""value"": true}], ""Friday"": [{""value"": true}], ""Saturday"": [{""value"": true}], ""Sunday"": [{""value"": true}], ""Timing"": [{""value"": {""DayPart"": [{""value"": ""All Day""}]}}]}}]}}]",Active,Tennis & Racquet Sports,Tennis Courts
157,Whitewater Creek Country Club,2830,,,,,,,,,,,,1,"[{""value"": {""Season"": [{""value"": ""All Season""}], ""DayAndTiming"": [{""value"": {""Monday"": [{""value"": true}], ""Tuesday"": [{""value"": true}], ""Wednesday"": [{""value"": true}], ""Thursday"": [{""value"": true}], ""Friday"": [{""value"": true}], ""Saturday"": [{""value"": true}], ""Sunday"": [{""value"": true}], ""Timing"": [{""value"": {""DayPart"": [{""value"": ""All Day""}]}}]}}]}}]",Active,Tennis & Racquet Sports,Tennis Courts
158,Eagle Watch,2832,,,,,,,,,,,,1,"[{""value"": {""Season"": [{""value"": ""All Season""}], ""DayAndTiming"": [{""value"": {""Monday"": [{""value"": true}], ""Tuesday"": [{""value"": true}], ""Wednesday"": [{""value"": true}], ""Thursday"": [{""value"": true}], ""Friday"": [{""value"": true}], ""Saturday"": [{""value"": true}], ""Sunday"": [{""value"": true}], ""Timing"": [{""value"": {""StartTime"": [{""value"": ""n""}], ""EndTime"": [{""value"": ""n""}], ""DayPart"": [{""value"": ""All Day""}]}}]}}]}}]",Active,Tennis & Racquet Sports,Tennis Courts
159,Olde Atlanta,2834,,,,,,,,,,,,1,"[{""value"": {""Season"": [{""value"": ""All Season""}], ""DayAndTiming"": [{""value"": {""Monday"": [{""value"": true}], ""Tuesday"": [{""value"": true}], ""Wednesday"": [{""value"": true}], ""Thursday"": [{""value"": true}], ""Friday"": [{""value"": true}], ""Saturday"": [{""value"": true}], ""Sunday"": [{""value"": true}], ""Timing"": [{""value"": {""DayPart"": [{""value"": ""All Day""}]}}]}}]}}]",Active,Tennis & Racquet Sports,Tennis Courts
160,Healy Point Country Club,2836,,,,,,,Outdoor Tennis Courts,Outdoor Clay Tennis Courts,Lighted Courts,,,1,"[{""value"": {""Season"": [{""value"": ""All Season""}], ""DayAndTiming"": [{""value"": {""Monday"": [{""value"": true}], ""Tuesday"": [{""value"": true}], ""Wednesday"": [{""value"": true}], ""Thursday"": [{""value"": true}], ""Friday"": [{""value"": true}], ""Saturday"": [{""value"": true}], ""Sunday"": [{""value"": true}], ""Timing"": [{""value"": {""StartTime"": [{""value"": ""08:00 AM""}], ""EndTime"": [{""value"": ""10:00 PM""}], ""DayPart"": [{""value"": ""All Day""}]}}]}}]}}]",Active,Tennis & Racquet Sports,Tennis Courts
161,Traditions of Braselton,2838,,,,,,,,,,,,1,"[{""value"": {""Season"": [{""value"": ""All Season""}], ""DayAndTiming"": [{""value"": {""Monday"": [{""value"": true}], ""Tuesday"": [{""value"": true}], ""Wednesday"": [{""value"": true}], ""Thursday"": [{""value"": true}], ""Friday"": [{""value"": true}], ""Saturday"": [{""value"": true}], ""Sunday"": [{""value"": true}], ""Timing"": [{""value"": {""DayPart"": [{""value"": ""All Day""}]}}]}}]}}]",Active,Tennis & Racquet Sports,Tennis Courts
162,Sun City Peachtree City,2840,,,,,,,,,,,,1,"[{""value"": {""Season"": [{""value"": ""All Season""}], ""DayAndTiming"": [{""value"": {""Monday"": [{""value"": true}], ""Tuesday"": [{""value"": true}], ""Wednesday"": [{""value"": true}], ""Thursday"": [{""value"": true}], ""Friday"": [{""value"": true}], ""Saturday"": [{""value"": true}], ""Sunday"": [{""value"": true}], ""Timing"": [{""value"": {""DayPart"": [{""value"": ""All Day""}]}}]}}]}}]",Active,Tennis & Racquet Sports,Tennis Courts
163,White Columns Country Club,2843,Same,,,,,,Outdoor Tennis Courts,Outdoor Clay Tennis Courts,Lighted Courts,,,1,"[{""value"": {""Season"": [{""value"": ""All Season""}], ""DayAndTiming"": [{""value"": {""Monday"": [{""value"": true}], ""Timing"": [{""value"": {""StartTime"": [{""value"": ""Same""}], ""DayPart"": [{""value"": ""All Day""}]}}]}}, {""value"": {""Tuesday"": [{""value"": true}], ""Wednesday"": [{""value"": true}], ""Thursday"": [{""value"": true}], ""Friday"": [{""value"": true}], ""Saturday"": [{""value"": true}], ""Sunday"": [{""value"": true}], ""Timing"": [{""value"": {""DayPart"": [{""value"": ""All Day""}]}}]}}]}}]",Active,Tennis & Racquet Sports,Tennis Courts
164,POLO GOLF & COUNTRY CLUB,2845,7000 LANCASTER CIRCLE,,CUMMING,GA,30040,USA,Outdoor Tennis Courts,Outdoor Clay Tennis Courts,Lighted Courts,,,1,"[{""value"": {""Season"": [{""value"": ""All Season""}], ""DayAndTiming"": [{""value"": {""Monday"": [{""value"": true}], ""Tuesday"": [{""value"": true}], ""Wednesday"": [{""value"": true}], ""Thursday"": [{""value"": true}], ""Friday"": [{""value"": true}], ""Saturday"": [{""value"": true}], ""Sunday"": [{""value"": true}], ""Timing"": [{""value"": {""EndTime"": [{""value"": ""10:00 PM""}], ""DayPart"": [{""value"": ""All Day""}]}}]}}]}}]",Active,Tennis & Racquet Sports,Tennis Courts
165,Atlanta National Golf Club,2847,,,,,,,,,,,,1,"[{""value"": {""Season"": [{""value"": ""All Season""}], ""DayAndTiming"": [{""value"": {""Monday"": [{""value"": true}], ""Tuesday"": [{""value"": true}], ""Wednesday"": [{""value"": true}], ""Thursday"": [{""value"": true}], ""Friday"": [{""value"": true}], ""Saturday"": [{""value"": true}], ""Sunday"": [{""value"": true}], ""Timing"": [{""value"": {""DayPart"": [{""value"": ""All Day""}]}}]}}]}}]",Active,Tennis & Racquet Sports,Tennis Courts
166,Manor Golf & CC,2849,,,,,,,Outdoor Tennis Courts,Outdoor Clay Tennis Courts,Lighted Courts,,Indoor Tennis Courts,1,"[{""value"": {""Season"": [{""value"": ""All Season""}], ""DayAndTiming"": [{""value"": {""Monday"": [{""value"": true}], ""Tuesday"": [{""value"": true}], ""Wednesday"": [{""value"": true}], ""Thursday"": [{""value"": true}], ""Friday"": [{""value"": true}], ""Saturday"": [{""value"": true}], ""Sunday"": [{""value"": true}], ""Timing"": [{""value"": {""DayPart"": [{""value"": ""All Day""}]}}]}}]}}]",Active,Tennis & Racquet Sports,Tennis Courts
167,Bentwater,2851,,,,,,,,,,,,1,"[{""value"": {""Season"": [{""value"": ""All Season""}], ""DayAndTiming"": [{""value"": {""Monday"": [{""value"": true}], ""Tuesday"": [{""value"": true}], ""Wednesday"": [{""value"": true}], ""Thursday"": [{""value"": true}], ""Friday"": [{""value"": true}], ""Saturday"": [{""value"": true}], ""Sunday"": [{""value"": true}], ""Timing"": [{""value"": {""DayPart"": [{""value"": ""All Day""}]}}]}}]}}]",Active,Tennis & Racquet Sports,Tennis Courts
168,The Woodlands Country Club,2855,2404 N. Millbend Drive,,The Woodlands,Texas,77380,USA,Outdoor Tennis Courts,Outdoor Clay Tennis Courts,Lighted Courts,,Indoor Tennis Courts,1,"[{""value"": {""Season"": [{""value"": ""All Season""}], ""DayAndTiming"": [{""value"": {""Monday"": [{""value"": true}], ""Tuesday"": [{""value"": true}], ""Wednesday"": [{""value"": true}], ""Thursday"": [{""value"": true}], ""Friday"": [{""value"": true}], ""Saturday"": [{""value"": true}], ""Sunday"": [{""value"": true}], ""Timing"": [{""value"": {""StartTime"": [{""value"": ""08:00 AM""}], ""EndTime"": [{""value"": ""10:00 PM""}], ""DayPart"": [{""value"": ""All Day""}]}}]}}]}}]",Active,Tennis & Racquet Sports,Tennis Courts
169,The Golf Trails of The Woodlands,2859,,,,,,,,,,,,1,"[{""value"": {""Season"": [{""value"": ""All Season""}], ""DayAndTiming"": [{""value"": {""Monday"": [{""value"": true}], ""Tuesday"": [{""value"": true}], ""Wednesday"": [{""value"": true}], ""Thursday"": [{""value"": true}], ""Friday"": [{""value"": true}], ""Saturday"": [{""value"": true}], ""Sunday"": [{""value"": true}], ""Timing"": [{""value"": {""DayPart"": [{""value"": ""All Day""}]}}]}}]}}]",Active,Tennis & Racquet Sports,Tennis Courts
170,Magnolia Creek,2861,,,,,,,,,,,,1,"[{""value"": {""Season"": [{""value"": ""All Season""}], ""DayAndTiming"": [{""value"": {""Monday"": [{""value"": true}], ""Tuesday"": [{""value"": true}], ""Wednesday"": [{""value"": true}], ""Thursday"": [{""value"": true}], ""Friday"": [{""value"": true}], ""Saturday"": [{""value"": true}], ""Sunday"": [{""value"": true}], ""Timing"": [{""value"": {""DayPart"": [{""value"": ""All Day""}]}}]}}]}}]",Active,Tennis & Racquet Sports,Tennis Courts
171,Lake Windcrest,2863,,,,,,,,,,,,1,"[{""value"": {""Season"": [{""value"": ""All Season""}], ""DayAndTiming"": [{""value"": {""Monday"": [{""value"": true}], ""Tuesday"": [{""value"": true}], ""Wednesday"": [{""value"": true}], ""Thursday"": [{""value"": true}], ""Friday"": [{""value"": true}], ""Saturday"": [{""value"": true}], ""Sunday"": [{""value"": true}], ""Timing"": [{""value"": {""DayPart"": [{""value"": ""All Day""}]}}]}}]}}]",Active,Tennis & Racquet Sports,Tennis Courts
172,South Shore Harbour ,2865,,,,,,,,,,,,1,"[{""value"": {""Season"": [{""value"": ""All Season""}], ""DayAndTiming"": [{""value"": {""Monday"": [{""value"": true}], ""Tuesday"": [{""value"": true}], ""Wednesday"": [{""value"": true}], ""Thursday"": [{""value"": true}], ""Friday"": [{""value"": true}], ""Saturday"": [{""value"": true}], ""Sunday"": [{""value"": true}], ""Timing"": [{""value"": {""DayPart"": [{""value"": ""All Day""}]}}]}}]}}]",Active,Tennis & Racquet Sports,Tennis Courts
173,Blackstone Country Club,2866,Same,,,,,,Outdoor Tennis Courts,,,,,1,"[{""value"": {""Season"": [{""value"": ""All Season""}], ""DayAndTiming"": [{""value"": {""Monday"": [{""value"": true}], ""Tuesday"": [{""value"": true}], ""Wednesday"": [{""value"": true}], ""Thursday"": [{""value"": true}], ""Friday"": [{""value"": true}], ""Saturday"": [{""value"": true}], ""Sunday"": [{""value"": true}], ""Timing"": [{""value"": {""StartTime"": [{""value"": ""08:00 AM""}], ""EndTime"": [{""value"": ""07:00 PM""}], ""DayPart"": [{""value"": ""All Day""}]}}]}}]}}]",Active,Tennis & Racquet Sports,Tennis Courts
174,Black Bear Golf Club,2868,na,,,,,,,,,,,1,"[{""value"": {""Season"": [{""value"": ""All Season""}], ""DayAndTiming"": [{""value"": {""Monday"": [{""value"": true}], ""Tuesday"": [{""value"": true}], ""Wednesday"": [{""value"": true}], ""Thursday"": [{""value"": true}], ""Friday"": [{""value"": true}], ""Saturday"": [{""value"": true}], ""Sunday"": [{""value"": true}], ""Timing"": [{""value"": {""DayPart"": [{""value"": ""All Day""}]}}]}}]}}]",Active,Tennis & Racquet Sports,Tennis Courts
175,ptc tennis center,2879,same,,,,,,Outdoor Tennis Courts,Outdoor Clay Tennis Courts,Lighted Courts,Covered Courts,,1,"[{""value"": {""Season"": [{""value"": ""All Season""}], ""DayAndTiming"": [{""value"": {""Monday"": [{""value"": true}], ""Tuesday"": [{""value"": true}], ""Wednesday"": [{""value"": true}], ""Thursday"": [{""value"": true}], ""Friday"": [{""value"": true}], ""Saturday"": [{""value"": true}], ""Sunday"": [{""value"": true}], ""Timing"": [{""value"": {""DayPart"": [{""value"": ""All Day""}]}}]}}]}}]",Active,Tennis & Racquet Sports,Tennis Courts
176,Old Ranch Country Club ,2889,,,,,,,,,,,,1,"[{""value"": {""Season"": [{""value"": ""All Season""}], ""DayAndTiming"": [{""value"": {""Monday"": [{""value"": true}], ""Tuesday"": [{""value"": true}], ""Wednesday"": [{""value"": true}], ""Thursday"": [{""value"": true}], ""Friday"": [{""value"": true}], ""Saturday"": [{""value"": true}], ""Sunday"": [{""value"": true}], ""Timing"": [{""value"": {""DayPart"": [{""value"": ""All Day""}]}}]}}]}}]",Active,Tennis & Racquet Sports,Tennis Courts
177,Canebrake Country Club,2895,,,,,,,,,,,,1,"[{""value"": {""Season"": [{""value"": ""All Season""}], ""DayAndTiming"": [{""value"": {""Monday"": [{""value"": true}], ""Tuesday"": [{""value"": true}], ""Wednesday"": [{""value"": true}], ""Thursday"": [{""value"": true}], ""Friday"": [{""value"": true}], ""Saturday"": [{""value"": true}], ""Sunday"": [{""value"": true}], ""Timing"": [{""value"": {""DayPart"": [{""value"": ""All Day""}]}}]}}]}}]",Active,Tennis & Racquet Sports,Tennis Courts
178,Fort Collins Country Club,2901,,,,,,,Outdoor Tennis Courts,,Lighted Courts,,Indoor Tennis Courts,1,"[{""value"": {""Season"": [{""value"": ""All Season""}], ""DayAndTiming"": [{""value"": {""Monday"": [{""value"": true}], ""Tuesday"": [{""value"": true}], ""Wednesday"": [{""value"": true}], ""Thursday"": [{""value"": true}], ""Friday"": [{""value"": true}], ""Saturday"": [{""value"": true}], ""Sunday"": [{""value"": true}], ""Timing"": [{""value"": {""StartTime"": [{""value"": ""06:00 AM""}], ""EndTime"": [{""value"": ""09:00 PM""}], ""DayPart"": [{""value"": ""All Day""}]}}]}}]}}]",Active,Tennis & Racquet Sports,Tennis Courts
179,River Run Country Club,2948,18801 Greyton Lane,,Davidson,NC,28036,USA,Outdoor Tennis Courts,Outdoor Clay Tennis Courts,Lighted Courts,,Indoor Tennis Courts,1,"[{""value"": {""Season"": [{""value"": ""All Season""}], ""DayAndTiming"": [{""value"": {""Monday"": [{""value"": true}], ""Tuesday"": [{""value"": true}], ""Wednesday"": [{""value"": true}], ""Thursday"": [{""value"": true}], ""Friday"": [{""value"": true}], ""Saturday"": [{""value"": true}], ""Sunday"": [{""value"": true}], ""Timing"": [{""value"": {""DayPart"": [{""value"": ""All Day""}]}}]}}]}}]",Active,Tennis & Racquet Sports,Tennis Courts
180,Bernardo Heights Country Club,2985,,,,,,,,,,,,1,"[{""value"": {""Season"": [{""value"": ""All Season""}], ""DayAndTiming"": [{""value"": {""Monday"": [{""value"": true}], ""Tuesday"": [{""value"": true}], ""Wednesday"": [{""value"": true}], ""Thursday"": [{""value"": true}], ""Friday"": [{""value"": true}], ""Saturday"": [{""value"": true}], ""Sunday"": [{""value"": true}], ""Timing"": [{""value"": {""DayPart"": [{""value"": ""All Day""}]}}]}}]}}]",Active,Tennis & Racquet Sports,Tennis Courts
181,Santa Rosa Golf & Beach Club,2987,,,,,,,,,,,,1,"[{""value"": {""Season"": [{""value"": ""All Season""}], ""DayAndTiming"": [{""value"": {""Monday"": [{""value"": true}], ""Tuesday"": [{""value"": true}], ""Wednesday"": [{""value"": true}], ""Thursday"": [{""value"": true}], ""Friday"": [{""value"": true}], ""Saturday"": [{""value"": true}], ""Sunday"": [{""value"": true}], ""Timing"": [{""value"": {""DayPart"": [{""value"": ""All Day""}]}}]}}]}}]",Active,Tennis & Racquet Sports,Tennis Courts
182,Marsh Creek Country Club,2997,169 Marshside dr,,St augustine,Fl,31080,US,,Outdoor Clay Tennis Courts,,,,1,"[{""value"": {""Season"": [{""value"": ""All Season""}], ""DayAndTiming"": [{""value"": {""Monday"": [{""value"": true}], ""Tuesday"": [{""value"": true}], ""Wednesday"": [{""value"": true}], ""Thursday"": [{""value"": true}], ""Friday"": [{""value"": true}], ""Saturday"": [{""value"": true}], ""Sunday"": [{""value"": true}], ""Timing"": [{""value"": {""StartTime"": [{""value"": ""7""}], ""EndTime"": [{""value"": ""7""}], ""DayPart"": [{""value"": ""All Day""}]}}]}}]}}]",Active,Tennis & Racquet Sports,Tennis Courts
183,Santa Rosa Golf and Country Club,3008,,,,,,,Outdoor Tennis Courts,,,,,1,"[{""value"": {""Season"": [{""value"": ""All Season""}], ""DayAndTiming"": [{""value"": {""Monday"": [{""value"": true}], ""Tuesday"": [{""value"": true}], ""Wednesday"": [{""value"": true}], ""Thursday"": [{""value"": true}], ""Friday"": [{""value"": true}], ""Saturday"": [{""value"": true}], ""Sunday"": [{""value"": true}], ""Timing"": [{""value"": {""DayPart"": [{""value"": ""All Day""}]}}]}}]}}]",Active,Tennis & Racquet Sports,Tennis Courts
184,Country Club of Columbus,3012,2610 Cherokee Avenue,,Columbus,Georgia,31092,USA,Outdoor Tennis Courts,Outdoor Clay Tennis Courts,Lighted Courts,,,1,"[{""value"": {""Season"": [{""value"": ""All Season""}], ""DayAndTiming"": [{""value"": {""Monday"": [{""value"": true}], ""Tuesday"": [{""value"": true}], ""Wednesday"": [{""value"": true}], ""Thursday"": [{""value"": true}], ""Friday"": [{""value"": true}], ""Saturday"": [{""value"": true}], ""Sunday"": [{""value"": true}], ""Timing"": [{""value"": {""DayPart"": [{""value"": ""All Day""}]}}]}}]}}]",Active,Tennis & Racquet Sports,Tennis Courts
185,Heritage Golf Club,3016,,,,,,,,,,,,1,"[{""value"": {""Season"": [{""value"": ""All Season""}], ""DayAndTiming"": [{""value"": {""Monday"": [{""value"": true}], ""Tuesday"": [{""value"": true}], ""Wednesday"": [{""value"": true}], ""Thursday"": [{""value"": true}], ""Friday"": [{""value"": true}], ""Saturday"": [{""value"": true}], ""Sunday"": [{""value"": true}], ""Timing"": [{""value"": {""DayPart"": [{""value"": ""All Day""}]}}]}}]}}]",Active,Tennis & Racquet Sports,Tennis Courts
186,Eagles Nest Country Club,3056,,,,,,,Outdoor Tennis Courts,Outdoor Clay Tennis Courts,Lighted Courts,,,1,"[{""value"": {""Season"": [{""value"": ""All Season""}], ""DayAndTiming"": [{""value"": {""Monday"": [{""value"": true}], ""Tuesday"": [{""value"": true}], ""Wednesday"": [{""value"": true}], ""Thursday"": [{""value"": true}], ""Friday"": [{""value"": true}], ""Saturday"": [{""value"": true}], ""Sunday"": [{""value"": true}], ""Timing"": [{""value"": {""DayPart"": [{""value"": ""All Day""}]}}]}}]}}]",Active,Tennis & Racquet Sports,Tennis Courts
187,North Hills Country Club,3059,,,,,,,,,,,,1,"[{""value"": {""Season"": [{""value"": ""All Season""}], ""DayAndTiming"": [{""value"": {""Monday"": [{""value"": true}], ""Tuesday"": [{""value"": true}], ""Wednesday"": [{""value"": true}], ""Thursday"": [{""value"": true}], ""Friday"": [{""value"": true}], ""Saturday"": [{""value"": true}], ""Sunday"": [{""value"": true}], ""Timing"": [{""value"": {""DayPart"": [{""value"": ""All Day""}]}}]}}]}}]",Active,Tennis & Racquet Sports,Tennis Courts
188,Norbeck Country Club,3065,,,,,,,Outdoor Tennis Courts,Outdoor Clay Tennis Courts,Lighted Courts,Covered Courts,Indoor Tennis Courts,1,"[{""value"": {""Season"": [{""value"": ""All Season""}], ""DayAndTiming"": [{""value"": {""Monday"": [{""value"": true}], ""Tuesday"": [{""value"": true}], ""Wednesday"": [{""value"": true}], ""Thursday"": [{""value"": true}], ""Friday"": [{""value"": true}], ""Saturday"": [{""value"": true}], ""Sunday"": [{""value"": true}], ""Timing"": [{""value"": {""DayPart"": [{""value"": ""All Day""}]}}]}}]}}]",Active,Tennis & Racquet Sports,Tennis Courts
189,Oakhurst Golf and Country Club,3070,,,,,,,Outdoor Tennis Courts,Outdoor Clay Tennis Courts,Lighted Courts,,,1,"[{""value"": {""Season"": [{""value"": ""All Season""}], ""DayAndTiming"": [{""value"": {""Monday"": [{""value"": true}], ""Tuesday"": [{""value"": true}], ""Wednesday"": [{""value"": true}], ""Friday"": [{""value"": true}], ""Saturday"": [{""value"": true}], ""Sunday"": [{""value"": true}], ""Timing"": [{""value"": {""StartTime"": [{""value"": ""anytime""}], ""EndTime"": [{""value"": ""anytime""}], ""DayPart"": [{""value"": ""All Day""}]}}]}}, {""value"": {""Thursday"": [{""value"": true}], ""Timing"": [{""value"": {""StartTime"": [{""value"": ""anytime""}], ""EndTime"": [{""value"": ""anytim""}], ""DayPart"": [{""value"": ""All Day""}]}}]}}]}}]",Active,Tennis & Racquet Sports,Tennis Courts
190,The Collective,3080,,,,,,,,,,,,1,"[{""value"": {""Season"": [{""value"": ""All Season""}], ""DayAndTiming"": [{""value"": {""Monday"": [{""value"": true}], ""Tuesday"": [{""value"": true}], ""Wednesday"": [{""value"": true}], ""Thursday"": [{""value"": true}], ""Friday"": [{""value"": true}], ""Saturday"": [{""value"": true}], ""Sunday"": [{""value"": true}], ""Timing"": [{""value"": {""DayPart"": [{""value"": ""All Day""}]}}]}}]}}]",Active,Tennis & Racquet Sports,Tennis Courts
191,Medina Golf & Country Club,3083,400 Evergreen Rd,,Medina,MN,55340,USA,,Outdoor Clay Tennis Courts,,,,1,"[{""value"": {""Season"": [{""value"": ""All Season""}], ""DayAndTiming"": [{""value"": {""Monday"": [{""value"": true}], ""Tuesday"": [{""value"": true}], ""Wednesday"": [{""value"": true}], ""Thursday"": [{""value"": true}], ""Friday"": [{""value"": true}], ""Saturday"": [{""value"": true}], ""Sunday"": [{""value"": true}], ""Timing"": [{""value"": {""DayPart"": [{""value"": ""All Day""}]}}]}}]}}]",Active,Tennis & Racquet Sports,Tennis Courts
192,Mystic Dunes ,3110,,,,,,,,,,,,1,"[{""value"": {""Season"": [{""value"": ""All Season""}], ""DayAndTiming"": [{""value"": {""Monday"": [{""value"": true}], ""Tuesday"": [{""value"": true}], ""Wednesday"": [{""value"": true}], ""Thursday"": [{""value"": true}], ""Friday"": [{""value"": true}], ""Saturday"": [{""value"": true}], ""Sunday"": [{""value"": true}], ""Timing"": [{""value"": {""DayPart"": [{""value"": ""All Day""}]}}]}}]}}]",Active,Tennis & Racquet Sports,Tennis Courts
193,Bent Creek Golf Course,3112,,,,,,,,,,,,1,"[{""value"": {""Season"": [{""value"": ""All Season""}], ""DayAndTiming"": [{""value"": {""Monday"": [{""value"": true}], ""Tuesday"": [{""value"": true}], ""Wednesday"": [{""value"": true}], ""Thursday"": [{""value"": true}], ""Friday"": [{""value"": true}], ""Saturday"": [{""value"": true}], ""Sunday"": [{""value"": true}], ""Timing"": [{""value"": {""DayPart"": [{""value"": ""All Day""}]}}]}}]}}]",Active,Tennis & Racquet Sports,Tennis Courts
194,Teal Bend Golf Club,1212,,,,,,,,,,,,1,"[{""value"": {""Season"": [{""value"": ""All Season""}], ""DayAndTiming"": [{""value"": {""Monday"": [{""value"": true}], ""Tuesday"": [{""value"": true}], ""Wednesday"": [{""value"": true}], ""Thursday"": [{""value"": true}], ""Friday"": [{""value"": true}], ""Saturday"": [{""value"": true}], ""Sunday"": [{""value"": true}], ""Timing"": [{""value"": {""DayPart"": [{""value"": ""All Day""}]}}]}}]}}]",Active,Tennis & Racquet Sports,Tennis Courts
195,Turkey Creek Golf Club,1535,,,,,,,,,,,,1,"[{""value"": {""Season"": [{""value"": ""All Season""}], ""DayAndTiming"": [{""value"": {""Monday"": [{""value"": true}], ""Tuesday"": [{""value"": true}], ""Wednesday"": [{""value"": true}], ""Thursday"": [{""value"": true}], ""Friday"": [{""value"": true}], ""Saturday"": [{""value"": true}], ""Sunday"": [{""value"": true}], ""Timing"": [{""value"": {""DayPart"": [{""value"": ""All Day""}]}}]}}]}}]",Active,Tennis & Racquet Sports,Tennis Courts
196,Anthem Golf & Country Club,2175,,,,,,,Outdoor Tennis Courts,,Lighted Courts,,,1,"[{""value"": {""Season"": [{""value"": ""All Season""}], ""DayAndTiming"": [{""value"": {""Monday"": [{""value"": true}], ""Tuesday"": [{""value"": true}], ""Wednesday"": [{""value"": true}], ""Thursday"": [{""value"": true}], ""Friday"": [{""value"": true}], ""Saturday"": [{""value"": true}], ""Sunday"": [{""value"": true}], ""Timing"": [{""value"": {""StartTime"": [{""value"": ""08:00 AM""}], ""EndTime"": [{""value"": ""10:00 PM""}], ""DayPart"": [{""value"": ""All Day""}]}}]}}]}}]",Active,Tennis & Racquet Sports,Tennis Courts
197,Ironwood at Anthem,2284,,,,,,,Outdoor Tennis Courts,,,,,1,"[{""value"": {""Season"": [{""value"": ""All Season""}], ""DayAndTiming"": [{""value"": {""Monday"": [{""value"": true}], ""Tuesday"": [{""value"": true}], ""Wednesday"": [{""value"": true}], ""Thursday"": [{""value"": true}], ""Friday"": [{""value"": true}], ""Saturday"": [{""value"": true}], ""Sunday"": [{""value"": true}], ""Timing"": [{""value"": {""StartTime"": [{""value"": ""08:00 AM""}], ""EndTime"": [{""value"": ""10:00 PM""}], ""DayPart"": [{""value"": ""All Day""}]}}]}}]}}]",Active,Tennis & Racquet Sports,Tennis Courts
